{
"type": "FeatureCollection",
"name": "tainan_water_texture_09edba4a",
"crs": { "type": "name", "properties": { "name": "urn:ogc:def:crs:OGC:1.3:CRS84" } },
"features": [
{ "type": "Feature", "properties": { "feature_id": "0adc64da-56b2-40b4-b899-1f09c8dcca53", "OID_": "0", "Name": "", "FolderPath": "", "SymbolID": "0", "AltMode": "0", "Base": "0", "Clamped": "0", "Extruded": "0", "Snippet": "", "PopupInfo": "", "Shape_Leng": "0" }, "geometry": { "type": "LineString", "coordinates": [ [ 120.193018200000097, 22.999975140000046 ], [ 120.192968180000094, 23.000223900000037 ], [ 120.19297913000004, 23.000346070000035 ], [ 120.192988, 23.000376230000025 ], [ 120.193022600000063, 23.00046310000004 ], [ 120.193043900000035, 23.000490010000075 ], [ 120.193094130000077, 23.000527390000052 ], [ 120.193142760000114, 23.000557180000033 ], [ 120.193201490000092, 23.000575400000056 ], [ 120.193680120000067, 23.000658650000048 ], [ 120.193865560000049, 23.000672940000069 ], [ 120.193960090000019, 23.000686740000042 ], [ 120.194040860000072, 23.000710090000037 ], [ 120.194125570000111, 23.000722600000074 ], [ 120.194193350000091, 23.000716370000074 ], [ 120.19429478000005, 23.000694790000061 ] ] } },
{ "type": "Feature", "properties": { "feature_id": "86dc7d1b-377a-4328-90a9-3a581c0f69e8", "OID_": "0", "Name": "", "FolderPath": "", "SymbolID": "0", "AltMode": "0", "Base": "0", "Clamped": "0", "Extruded": "0", "Snippet": "", "PopupInfo": "", "Shape_Leng": "0" }, "geometry": { "type": "LineString", "coordinates": [ [ 120.193198210000091, 23.000212680000054 ], [ 120.193667040000037, 23.000049400000027 ], [ 120.19389329, 22.99998550000003 ] ] } },
{ "type": "Feature", "properties": { "feature_id": "ac3d3141-fec0-4185-86ea-3ea2250d0db3", "OID_": "0", "Name": "", "FolderPath": "", "SymbolID": "0", "AltMode": "0", "Base": "0", "Clamped": "0", "Extruded": "0", "Snippet": "", "PopupInfo": "", "Shape_Leng": "0" }, "geometry": { "type": "LineString", "coordinates": [ [ 120.215224099669399, 22.982405175319887 ], [ 120.215254832537227, 22.982981611131727 ], [ 120.215137026295253, 22.983167188831928 ], [ 120.215053701467966, 22.983296750542831 ], [ 120.215013418920321, 22.98349649035503 ], [ 120.215045898436088, 22.983595377667857 ], [ 120.215164644503801, 22.983719724661189 ], [ 120.215243637987939, 22.983847414604575 ], [ 120.215248953291749, 22.983999396287398 ], [ 120.215260262947922, 22.984185812637833 ], [ 120.21524370369724, 22.984372090976997 ], [ 120.215211517753531, 22.984566693898003 ], [ 120.215128015402684, 22.984726836936016 ], [ 120.215028616370574, 22.984779863455444 ], [ 120.214783562572478, 22.9846664442139 ], [ 120.214600376445546, 22.984578957251703 ], [ 120.214510030536687, 22.984494408391182 ], [ 120.214386699109298, 22.984402050407148 ], [ 120.214084483500386, 22.984237327502797 ], [ 120.213700810793, 22.984183816792314 ], [ 120.21352449046789, 22.984151403933623 ], [ 120.213398594725433, 22.983967285868438 ], [ 120.213297504787647, 22.983777556688729 ], [ 120.213187291589747, 22.983559111336096 ], [ 120.21313469111746, 22.983493070194729 ], [ 120.212835234351687, 22.983393939371112 ], [ 120.21232910330113, 22.983580452625386 ], [ 120.212082295763153, 22.983759893256455 ], [ 120.212034076650156, 22.983842260372565 ], [ 120.211984599993301, 22.98392677548129 ], [ 120.211645291413248, 22.984099501943156 ], [ 120.211480940127103, 22.984112578011164 ], [ 120.211292327668602, 22.984012048014275 ], [ 120.211118759670896, 22.983910271205342 ], [ 120.210893934087693, 22.983817273288551 ], [ 120.210841382742274, 22.983650661584939 ], [ 120.210787760482702, 22.983286275351123 ], [ 120.210736452152886, 22.983056653394698 ], [ 120.210691414024268, 22.982954668167682 ], [ 120.210557612331442, 22.982873075869783 ], [ 120.210407024714826, 22.982728165242282 ], [ 120.210243793178506, 22.982575396625581 ] ] } },
{ "type": "Feature", "properties": { "feature_id": "0900c56e-faf8-48aa-9bb7-4587a58fe63a", "OID_": "0", "Name": "", "FolderPath": "", "SymbolID": "0", "AltMode": "0", "Base": "0", "Clamped": "0", "Extruded": "0", "Snippet": "", "PopupInfo": "", "Shape_Leng": "0" }, "geometry": { "type": "LineString", "coordinates": [ [ 120.218759300746768, 22.993670325948642 ], [ 120.218559984917462, 22.993704786400844 ], [ 120.218223580743839, 22.993843530756397 ], [ 120.217844101716921, 22.994036743201224 ], [ 120.217712182039719, 22.994184816915766 ], [ 120.217547787946089, 22.994274795887577 ], [ 120.217467302662641, 22.994313820680219 ], [ 120.217376644610553, 22.994440468306351 ], [ 120.217245215977115, 22.99464235698149 ], [ 120.217068950000126, 22.994898090000042 ], [ 120.216904080421756, 22.995032150332488 ], [ 120.216758930472906, 22.995105227318515 ], [ 120.216455653046808, 22.995113112335783 ], [ 120.216252671832066, 22.995079405837092 ], [ 120.216027624789859, 22.99504252998771 ], [ 120.215549168959882, 22.994968962309908 ], [ 120.215161314228681, 22.994919256567687 ], [ 120.215056295791001, 22.994912584499627 ], [ 120.214767943356435, 22.994914045255882 ], [ 120.214632980000033, 22.994881240000044 ], [ 120.214548670000127, 22.994821560000048 ], [ 120.214502220646267, 22.99470806990567 ], [ 120.214454055058965, 22.994594599357487 ], [ 120.214358001144831, 22.994552034427553 ], [ 120.214149360000107, 22.994567780000057 ], [ 120.214009385983388, 22.994574144721931 ], [ 120.213839033102673, 22.994518739253937 ], [ 120.213650388099694, 22.994497282645224 ], [ 120.213352666717668, 22.994515493822924 ], [ 120.213115050000056, 22.994544950000023 ], [ 120.212911102148254, 22.994572990401931 ], [ 120.212613434793255, 22.994582765826248 ], [ 120.212305013062064, 22.994626191370397 ], [ 120.212128978026513, 22.994685354605803 ], [ 120.21198564772817, 22.994759164531796 ], [ 120.211850667247546, 22.994769079027918 ], [ 120.211639417522093, 22.99472465929345 ], [ 120.211050284221471, 22.994704152345772 ], [ 120.210588371566885, 22.994673469474709 ], [ 120.21026881512978, 22.994753323722076 ], [ 120.210016635803157, 22.994684520459227 ], [ 120.209836096239727, 22.994585666388389 ], [ 120.209721465230231, 22.994385020011048 ], [ 120.209616125888957, 22.99431195731254 ], [ 120.209450216453206, 22.994216163032807 ], [ 120.209195632202494, 22.994232938678582 ], [ 120.209012687752775, 22.994367636676326 ], [ 120.208893170826684, 22.994505615187975 ], [ 120.20880451005128, 22.994662861549983 ], [ 120.20868959698565, 22.994896432061257 ], [ 120.20857010710877, 22.995029631978412 ], [ 120.20840441589425, 22.995119594808127 ], [ 120.208223575998858, 22.99517747320456 ], [ 120.208056446269481, 22.995221100519466 ], [ 120.207835767762077, 22.995167055363542 ], [ 120.207473961692173, 22.995131909237017 ], [ 120.207156094572099, 22.995206773966395 ], [ 120.206675222384348, 22.995318045055303 ], [ 120.206312017833341, 22.995462730937298 ], [ 120.206183646385966, 22.995525481889871 ], [ 120.206108485099023, 22.995668458914654 ], [ 120.206027297705916, 22.995782734957483 ], [ 120.205846878303859, 22.995919450089385 ], [ 120.20567281989058, 22.996027526168472 ], [ 120.205306356318047, 22.996203446664424 ], [ 120.205135123839838, 22.996286366116383 ], [ 120.205076050906229, 22.996397252063517 ], [ 120.205127395718065, 22.997148682804568 ], [ 120.205288625539225, 22.998208820484599 ], [ 120.205339303523971, 22.998587161905995 ], [ 120.20527310707898, 22.99870910137539 ], [ 120.205160920876736, 22.998862407363852 ], [ 120.204846723023408, 22.999193869427359 ], [ 120.204597124013432, 22.999508146986216 ], [ 120.204455049091365, 22.999695135433338 ], [ 120.204304084810019, 22.999847520158891 ], [ 120.204215257796989, 22.999872449438367 ], [ 120.204113073518712, 22.999834472935287 ], [ 120.204038590237843, 22.999720180345189 ], [ 120.203836559809588, 22.999527262299392 ], [ 120.203679080791076, 22.999482891148212 ], [ 120.203567637837864, 22.999474685291919 ], [ 120.203393909532338, 22.999525418911475 ], [ 120.203204252352435, 22.999767402569258 ], [ 120.202989804278005, 23.000062674380032 ], [ 120.202901148668204, 23.000068830094072 ], [ 120.202788740268673, 23.000084319937887 ], [ 120.202500564270395, 23.000160088945929 ], [ 120.202330468290171, 23.000154645076957 ], [ 120.202076010878613, 23.000170183503606 ], [ 120.20170490322387, 23.000220303012082 ], [ 120.201406447326278, 23.000394604456289 ], [ 120.20133152002451, 23.000464128513997 ], [ 120.200854156958897, 23.000411398380539 ], [ 120.200319374965972, 23.000542166422239 ], [ 120.199875640864505, 23.000601089513193 ], [ 120.199496988911918, 23.000564771347303 ], [ 120.199206575879671, 23.000565078141772 ], [ 120.198885432052876, 23.000635267312287 ], [ 120.198799548095081, 23.000652299697428 ], [ 120.198291106031164, 23.000504817837403 ], [ 120.198089634383166, 23.000561261331697 ], [ 120.197844315158193, 23.000669044576195 ], [ 120.197471578983652, 23.000854471439084 ], [ 120.196766644392866, 23.001155207966988 ], [ 120.196039668089782, 23.001482225989246 ] ] } },
{ "type": "Feature", "properties": { "feature_id": "8b349fd3-a83d-46e7-bee0-4ac3458a33b1", "OID_": "0", "Name": "", "FolderPath": "", "SymbolID": "0", "AltMode": "0", "Base": "0", "Clamped": "0", "Extruded": "0", "Snippet": "", "PopupInfo": "", "Shape_Leng": "0" }, "geometry": { "type": "LineString", "coordinates": [ [ 120.205391744421064, 22.992132712891109 ], [ 120.205560920338314, 22.992108474411904 ], [ 120.205876207313722, 22.992032405161517 ], [ 120.206019919552944, 22.991974350250633 ], [ 120.206187797639799, 22.991926451387254 ], [ 120.206302948281092, 22.991873270650583 ], [ 120.206515976836755, 22.99186931489216 ], [ 120.206777805404798, 22.991870870410043 ], [ 120.206981875551079, 22.991866588099043 ], [ 120.207207642326026, 22.991800030960452 ], [ 120.207373601956888, 22.991732648668837 ], [ 120.207433703165094, 22.991712764950996 ], [ 120.207478856628626, 22.991721215404517 ], [ 120.207793595634669, 22.991893712936829 ] ] } },
{ "type": "Feature", "properties": { "feature_id": "b7fff8dc-b2b3-4074-a594-513d82b76c16", "OID_": "0", "Name": "", "FolderPath": "", "SymbolID": "0", "AltMode": "0", "Base": "0", "Clamped": "0", "Extruded": "0", "Snippet": "", "PopupInfo": "", "Shape_Leng": "0" }, "geometry": { "type": "LineString", "coordinates": [ [ 120.192968180000094, 23.000223900000037 ], [ 120.193198210000091, 23.000212680000054 ] ] } },
{ "type": "Feature", "properties": { "feature_id": "115a50a6-eaef-4934-9bb9-531e173a8794", "OID_": "0", "Name": "", "FolderPath": "", "SymbolID": "0", "AltMode": "0", "Base": "0", "Clamped": "0", "Extruded": "0", "Snippet": "", "PopupInfo": "", "Shape_Leng": "0" }, "geometry": { "type": "LineString", "coordinates": [ [ 120.192477220000114, 22.998286450000016 ], [ 120.192471790000013, 22.998421600000025 ], [ 120.192486590000058, 22.998517380000056 ], [ 120.19252149000009, 22.998766260000018 ], [ 120.192582870000038, 22.998922300000057 ], [ 120.192746260000035, 22.999157040000053 ], [ 120.192926810000031, 22.999366980000044 ], [ 120.193073470000044, 22.999547340000039 ], [ 120.19311231000006, 22.999639610000035 ], [ 120.193108270000039, 22.999732980000026 ], [ 120.19304838000005, 22.999867560000034 ], [ 120.193018200000097, 22.999975140000046 ] ] } },
{ "type": "Feature", "properties": { "feature_id": "7b86102a-39dd-42a8-91f7-5e393f75aa88", "OID_": "0", "Name": "", "FolderPath": "", "SymbolID": "0", "AltMode": "0", "Base": "0", "Clamped": "0", "Extruded": "0", "Snippet": "", "PopupInfo": "", "Shape_Leng": "0" }, "geometry": { "type": "LineString", "coordinates": [ [ 120.195964201099812, 22.997566652345526 ], [ 120.19599834836356, 22.997304422061678 ], [ 120.196010604201192, 22.997196916253984 ], [ 120.195950342096609, 22.997000620155962 ], [ 120.195881411148093, 22.996896753313937 ] ] } },
{ "type": "Feature", "properties": { "feature_id": "011d4a35-c677-4ebc-bcd0-614844d6f809", "OID_": "0", "Name": "", "FolderPath": "", "SymbolID": "0", "AltMode": "0", "Base": "0", "Clamped": "0", "Extruded": "0", "Snippet": "", "PopupInfo": "", "Shape_Leng": "0" }, "geometry": { "type": "LineString", "coordinates": [ [ 120.193893300000028, 22.999985500000026 ], [ 120.193939140000111, 22.999972550000045 ], [ 120.194032950000079, 22.99996142000003 ], [ 120.194108990000018, 22.999967910000063 ], [ 120.19417734000001, 22.999998510000061 ], [ 120.194311710000079, 23.000063200000053 ] ] } },
{ "type": "Feature", "properties": { "feature_id": "de22a4a2-fa29-410c-9c10-720d236503dc", "OID_": "0", "Name": "", "FolderPath": "", "SymbolID": "0", "AltMode": "0", "Base": "0", "Clamped": "0", "Extruded": "0", "Snippet": "", "PopupInfo": "", "Shape_Leng": "0" }, "geometry": { "type": "LineString", "coordinates": [ [ 120.193080117428693, 22.996372997606183 ], [ 120.19358938979903, 22.996140491507905 ], [ 120.193815981810516, 22.996125441285962 ], [ 120.19382298881817, 22.995899779374589 ], [ 120.194052229823271, 22.995764929781448 ], [ 120.194469741975212, 22.995635476532275 ], [ 120.195040973850823, 22.995485469975893 ], [ 120.195576640802756, 22.995424266418798 ], [ 120.195934609614866, 22.995296489753983 ], [ 120.196435746930774, 22.995079851547217 ], [ 120.196561859603037, 22.995186526436644 ], [ 120.196729017892494, 22.995198842425697 ] ] } },
{ "type": "Feature", "properties": { "feature_id": "296c3772-a0c0-4337-a906-78b55a2a7032", "OID_": "0", "Name": "", "FolderPath": "", "SymbolID": "0", "AltMode": "0", "Base": "0", "Clamped": "0", "Extruded": "0", "Snippet": "", "PopupInfo": "", "Shape_Leng": "0" }, "geometry": { "type": "LineString", "coordinates": [ [ 120.197622132476454, 22.997089326958061 ], [ 120.196920825637335, 22.997326606726908 ], [ 120.196318683020422, 22.997552918221469 ], [ 120.196104117041045, 22.997611639799203 ], [ 120.195626465101356, 22.997632851856629 ], [ 120.195023798643987, 22.997615152595166 ], [ 120.194762087896819, 22.997602178598004 ], [ 120.194467661355034, 22.997394428227818 ], [ 120.194029783915752, 22.997076823425306 ], [ 120.19393150270389, 22.996938704095466 ], [ 120.193715406508971, 22.996822921600241 ], [ 120.193332048744523, 22.996712021261526 ], [ 120.19293548632794, 22.996738671943092 ] ] } },
{ "type": "Feature", "properties": { "feature_id": "16e62f6c-44fa-49f8-8634-805d1e822caf", "OID_": "0", "Name": "", "FolderPath": "", "SymbolID": "0", "AltMode": "0", "Base": "0", "Clamped": "0", "Extruded": "0", "Snippet": "", "PopupInfo": "", "Shape_Leng": "0" }, "geometry": { "type": "LineString", "coordinates": [ [ 120.199508743824126, 22.996097611454225 ], [ 120.198950100141062, 22.996219018270398 ], [ 120.198493078453339, 22.996308370531061 ], [ 120.198157947493897, 22.996397074220781 ], [ 120.197709809896011, 22.996507691912385 ], [ 120.197409592923165, 22.99646065496367 ], [ 120.197029361443896, 22.996565584409485 ], [ 120.196485300246138, 22.996725005210589 ], [ 120.195989178936372, 22.996851041396674 ], [ 120.195854510731536, 22.996908163660724 ], [ 120.195482196802146, 22.9968397425842 ], [ 120.195066094224345, 22.996749513062809 ], [ 120.194726014238896, 22.996591831707669 ], [ 120.194325614972342, 22.996281283588928 ], [ 120.194186088103493, 22.996214881984617 ], [ 120.193815981810516, 22.996125441285962 ] ] } },
{ "type": "Feature", "properties": { "feature_id": "276c657e-f9fd-4eaa-851e-9820ade61254", "OID_": "0", "Name": "", "FolderPath": "", "SymbolID": "0", "AltMode": "0", "Base": "0", "Clamped": "0", "Extruded": "0", "Snippet": "", "PopupInfo": "", "Shape_Leng": "0" }, "geometry": { "type": "LineString", "coordinates": [ [ 120.210243793178506, 22.982575396625581 ], [ 120.210100796831838, 22.982360327171094 ], [ 120.210006534963085, 22.982239917794345 ], [ 120.209950649503725, 22.982087683948059 ], [ 120.209783322920629, 22.98206356920705 ], [ 120.209640203349551, 22.982045710203707 ], [ 120.209636245214085, 22.981927662326079 ], [ 120.209664561127525, 22.981850870214902 ], [ 120.209589494924742, 22.98162090228422 ], [ 120.209582215808965, 22.981470656697301 ], [ 120.209646854552574, 22.981360118613594 ], [ 120.209773293798776, 22.981223088558259 ], [ 120.209885829316278, 22.981089893208296 ], [ 120.209987647450347, 22.980975717543544 ], [ 120.210105924327209, 22.980871180774123 ], [ 120.210142516317106, 22.980764468807461 ], [ 120.210177311273782, 22.980549611134681 ], [ 120.210264796794831, 22.980148655725191 ], [ 120.210370385974755, 22.979740622726823 ], [ 120.210434133439094, 22.979427950576177 ], [ 120.210498347609573, 22.979123722668632 ], [ 120.210562241577364, 22.978785725269269 ], [ 120.210681348876392, 22.97843557186324 ], [ 120.210683336076187, 22.978195709461296 ], [ 120.210656983944645, 22.977934673753083 ], [ 120.210540705201879, 22.977795528157003 ], [ 120.210438672280205, 22.977669814862086 ], [ 120.21024489927342, 22.977445217096779 ], [ 120.20982009863755, 22.977013037660456 ], [ 120.209216181108303, 22.976410566880336 ], [ 120.209108614894234, 22.976271454587067 ], [ 120.208913040681153, 22.976179687729935 ], [ 120.208650072999646, 22.976140147369541 ], [ 120.208190140005826, 22.976247755365925 ], [ 120.207712363681679, 22.976225064771562 ], [ 120.20711350317977, 22.976118230937026 ], [ 120.206837686637925, 22.976099185159185 ], [ 120.206628544123774, 22.976020245483287 ], [ 120.206434873219379, 22.975951024158956 ], [ 120.206285998125281, 22.975884611137857 ], [ 120.206049911958644, 22.975893957726505 ], [ 120.205905813697527, 22.976058189996316 ], [ 120.205806894392168, 22.976201490839799 ], [ 120.205693773668088, 22.976313340568428 ], [ 120.205388117139606, 22.976210038156353 ], [ 120.205164080408792, 22.976161750030808 ], [ 120.205117969123492, 22.976095255315478 ], [ 120.205081369455229, 22.975993274553979 ], [ 120.205073465246585, 22.975912387735271 ], [ 120.205089458142695, 22.975697576840876 ], [ 120.204979001781211, 22.97546906497481 ], [ 120.204809631468564, 22.975275439004729 ], [ 120.204812051593507, 22.975125207063595 ], [ 120.204661242484462, 22.975049608184591 ], [ 120.204540936813999, 22.975012757249544 ], [ 120.204364469260696, 22.974959709526981 ], [ 120.2041475625347, 22.974790956103647 ], [ 120.203986866380362, 22.974700095711498 ], [ 120.203852376035854, 22.974590877426717 ], [ 120.203747507213777, 22.974474475356082 ], [ 120.203666556213037, 22.974350626112738 ], [ 120.203628489416758, 22.974211361090251 ], [ 120.203645684657673, 22.974141183692044 ], [ 120.203680899181947, 22.97402329107658 ], [ 120.203656976634974, 22.973925085096571 ], [ 120.203543131861494, 22.973827847027064 ], [ 120.203303032546245, 22.973675509174502 ], [ 120.20305051986162, 22.973518143997467 ], [ 120.202953495380498, 22.973411388972931 ], [ 120.202840898159849, 22.973347575323704 ], [ 120.20279157740687, 22.973217483629778 ], [ 120.202832792555043, 22.973070190753859 ], [ 120.202936339413895, 22.972994334301841 ], [ 120.203140155073925, 22.972899323245272 ], [ 120.203207268373276, 22.972819888077364 ], [ 120.203302875670857, 22.972720874205113 ], [ 120.203403863448202, 22.972648932695684 ], [ 120.203426137478246, 22.972507568849867 ], [ 120.20342550190594, 22.972381414069876 ], [ 120.203316421348518, 22.97225183359301 ], [ 120.203272265544499, 22.972170745234198 ], [ 120.203165939845391, 22.971994647155725 ], [ 120.203175996042546, 22.971892214431993 ], [ 120.20321658459028, 22.971734977111563 ], [ 120.203291202934793, 22.971672782100921 ], [ 120.203454680427683, 22.971677703457328 ], [ 120.203651816291099, 22.971712015419889 ], [ 120.203802657505861, 22.971694857351856 ], [ 120.203971284353273, 22.97170309102896 ], [ 120.204104126273847, 22.971700335711954 ], [ 120.20424339733124, 22.971662196195751 ], [ 120.204354979915479, 22.971641011695429 ], [ 120.204435437748657, 22.971554093721043 ], [ 120.204439281661976, 22.971400572854996 ], [ 120.204386756316993, 22.971332239702718 ], [ 120.204296136063235, 22.971099483397865 ], [ 120.20425798707106, 22.970889340174196 ], [ 120.204283926118791, 22.970789713986306 ], [ 120.204380457336882, 22.970669094802378 ], [ 120.204596945048579, 22.970540977491133 ], [ 120.204684330444465, 22.970456649665099 ], [ 120.204722619995877, 22.970345665348351 ], [ 120.204766848686859, 22.970247446067315 ], [ 120.204656269691952, 22.970139007657774 ], [ 120.204593397853728, 22.970008991660791 ], [ 120.20460997376972, 22.969936138055882 ], [ 120.204588028956664, 22.969854918835381 ], [ 120.204464335839376, 22.969746134552945 ], [ 120.204361998095123, 22.969704316843277 ], [ 120.204243807519262, 22.969626831535518 ], [ 120.204128368556681, 22.969524129628635 ], [ 120.204062077079911, 22.969416987771485 ], [ 120.203968561684604, 22.969252584239591 ], [ 120.203800910792438, 22.96901168385482 ], [ 120.203597477979898, 22.968929272859349 ], [ 120.203405865640079, 22.968868367692888 ], [ 120.203050382296894, 22.968831599137168 ], [ 120.202730964647415, 22.968743726354028 ], [ 120.202595515106992, 22.968692774014542 ], [ 120.202377944082869, 22.968665031310369 ], [ 120.202120796361726, 22.968601257350528 ], [ 120.201880061957155, 22.968507522211784 ], [ 120.20159956283166, 22.968550953525668 ], [ 120.20148484755866, 22.968682451091716 ], [ 120.201343210374688, 22.968828252181588 ], [ 120.201171322104116, 22.969050359206285 ], [ 120.201125468158367, 22.969189680488842 ], [ 120.201014319332515, 22.969344226478601 ], [ 120.200822815181155, 22.969388245542575 ], [ 120.200635290063246, 22.969242708770352 ], [ 120.200567810633657, 22.969109863837787 ], [ 120.200406352042265, 22.968982162244473 ], [ 120.20031975422441, 22.968889265406979 ], [ 120.20025700829413, 22.968733683982748 ], [ 120.200260417914549, 22.968547199956678 ], [ 120.200292245130711, 22.968334041620039 ], [ 120.200416636056474, 22.968193852524902 ], [ 120.200457032133627, 22.967928045293135 ], [ 120.200496285283961, 22.967518300253651 ], [ 120.200650997551492, 22.967261693276104 ], [ 120.20070712596997, 22.966982058785252 ], [ 120.20065623797575, 22.966675697153836 ], [ 120.200584024523849, 22.966352419691251 ], [ 120.200478373585568, 22.966010783950328 ], [ 120.200396802194632, 22.965776554066039 ], [ 120.200317644623098, 22.965440379929266 ], [ 120.200319306517343, 22.965131106383392 ], [ 120.200349808593899, 22.965105327821963 ] ] } },
{ "type": "Feature", "properties": { "feature_id": "90cfa85e-8bd2-48f8-b188-b7dbfa824d72", "OID_": "0", "Name": "", "FolderPath": "", "SymbolID": "0", "AltMode": "0", "Base": "0", "Clamped": "0", "Extruded": "0", "Snippet": "", "PopupInfo": "", "Shape_Leng": "0" }, "geometry": { "type": "LineString", "coordinates": [ [ 120.197889537424487, 22.997956536117332 ], [ 120.196759775632572, 22.998375137158952 ], [ 120.196101646928597, 22.99864130270857 ], [ 120.195503530673548, 22.998773836212045 ], [ 120.195337042786562, 22.998859687562501 ], [ 120.195006564465558, 22.998648044264463 ], [ 120.194833338644628, 22.998489116509116 ], [ 120.194728682747638, 22.998290280445357 ], [ 120.194294559887553, 22.997928625252268 ], [ 120.19407544001146, 22.997716475130542 ], [ 120.193674202258165, 22.997486979158342 ], [ 120.193080963861902, 22.997272687522397 ], [ 120.192641589811871, 22.99720737320078 ] ] } },
{ "type": "Feature", "properties": { "feature_id": "714a9446-e669-4a9c-ac27-b9f6e10623ce", "OID_": "0", "Name": "", "FolderPath": "", "SymbolID": "0", "AltMode": "0", "Base": "0", "Clamped": "0", "Extruded": "0", "Snippet": "", "PopupInfo": "", "Shape_Leng": "0" }, "geometry": { "type": "LineString", "coordinates": [ [ 120.206183646385981, 22.995525481889871 ], [ 120.206092789655827, 22.995400869350373 ], [ 120.205964634551719, 22.995199732686075 ], [ 120.205892661030163, 22.995069203877499 ], [ 120.205943699264324, 22.994940136569767 ], [ 120.205939332658133, 22.994820092771153 ], [ 120.20585856455007, 22.99464778158471 ], [ 120.205750944921462, 22.994473780040071 ], [ 120.20569298441022, 22.994352769301699 ], [ 120.205662343608196, 22.994291431032501 ], [ 120.205591542240882, 22.994136329790326 ], [ 120.205612234051358, 22.993987082089632 ], [ 120.205651961395247, 22.993831757079874 ], [ 120.205663016890909, 22.993625190904247 ], [ 120.205752282763527, 22.993391300119896 ], [ 120.205873984997908, 22.993074336755512 ], [ 120.205905021541412, 22.992842020365298 ], [ 120.206010898861265, 22.992388836455813 ], [ 120.20606774161935, 22.992253710641986 ], [ 120.206068099950258, 22.99209524794232 ], [ 120.20605461207856, 22.991974524111356 ], [ 120.206099440404785, 22.991926276594587 ], [ 120.206114566366537, 22.991872087863552 ], [ 120.206130930356792, 22.991525731450086 ], [ 120.206104734838121, 22.991346647075652 ] ] } },
{ "type": "Feature", "properties": { "feature_id": "11c032d2-ae25-423a-902e-c66e91609cca", "OID_": "0", "Name": "", "FolderPath": "", "SymbolID": "0", "AltMode": "0", "Base": "0", "Clamped": "0", "Extruded": "0", "Snippet": "", "PopupInfo": "", "Shape_Leng": "0" }, "geometry": { "type": "LineString", "coordinates": [ [ 120.216891773235162, 22.983453084732318 ], [ 120.217202920703741, 22.983392622500137 ], [ 120.217276448647894, 22.983274020027206 ] ] } },
{ "type": "Feature", "properties": { "feature_id": "00a72ec8-b2cd-4a64-9565-c6bc0f387085", "OID_": "0", "Name": "", "FolderPath": "", "SymbolID": "0", "AltMode": "0", "Base": "0", "Clamped": "0", "Extruded": "0", "Snippet": "", "PopupInfo": "", "Shape_Leng": "0" }, "geometry": { "type": "LineString", "coordinates": [ [ 120.187591590000011, 22.999008670000013 ], [ 120.188272950000041, 22.999002610000037 ], [ 120.188607050000087, 22.998979090000024 ], [ 120.188774860000095, 22.998948190000071 ], [ 120.188928140000044, 22.998896870000067 ], [ 120.189130970000065, 22.998801540000041 ], [ 120.18982984000003, 22.998456290000028 ], [ 120.190739590000021, 22.998236350000067 ], [ 120.191530560000061, 22.998025360000035 ], [ 120.191843820000031, 22.997919660000033 ], [ 120.192131480000057, 22.99769185000002 ], [ 120.192367610000034, 22.99729440000004 ] ] } },
{ "type": "Feature", "properties": { "feature_id": "56385f9f-bb07-4c75-8051-e304aa15cbd3", "OID_": "0", "Name": "", "FolderPath": "", "SymbolID": "0", "AltMode": "0", "Base": "0", "Clamped": "0", "Extruded": "0", "Snippet": "", "PopupInfo": "", "Shape_Leng": "0" }, "geometry": { "type": "LineString", "coordinates": [ [ 120.215245538111944, 22.983272314639326 ], [ 120.215575952697208, 22.983268525059824 ], [ 120.215647091716065, 22.983250862169893 ], [ 120.215847546934995, 22.983133173514688 ], [ 120.215986163862596, 22.983059858255444 ], [ 120.216047753686439, 22.982850865879342 ], [ 120.216316407351641, 22.982917734427559 ], [ 120.216352201414324, 22.983110313531999 ], [ 120.216519324943079, 22.983341271057725 ], [ 120.216528392805543, 22.983403510596101 ], [ 120.216546177552459, 22.983410213805804 ], [ 120.216705535875732, 22.983417193857036 ], [ 120.216900340905468, 22.983425726290417 ], [ 120.21694069150827, 22.983591568678655 ], [ 120.216976237198566, 22.983745775634901 ], [ 120.216998112444173, 22.983844574374466 ], [ 120.217037034386678, 22.983934289525795 ], [ 120.217014198448339, 22.984054729354636 ], [ 120.216991630297201, 22.98424739960738 ], [ 120.217094490284254, 22.984510168595637 ], [ 120.216849269145754, 22.984631182074768 ] ] } },
{ "type": "Feature", "properties": { "feature_id": "3f038f9f-4c63-4e6f-ab94-ee41698e816b", "OID_": "0", "Name": "", "FolderPath": "", "SymbolID": "0", "AltMode": "0", "Base": "0", "Clamped": "0", "Extruded": "0", "Snippet": "", "PopupInfo": "", "Shape_Leng": "0" }, "geometry": { "type": "LineString", "coordinates": [ [ 120.20957639731067, 22.986184432731331 ], [ 120.209236315806137, 22.98618311857058 ], [ 120.208992239856329, 22.986154168936622 ], [ 120.208830969463378, 22.986170866416749 ], [ 120.208617110370653, 22.986271771189667 ], [ 120.208510015305308, 22.986458178797552 ], [ 120.208392458469362, 22.98658201347995 ], [ 120.208213252843848, 22.986663048491689 ], [ 120.207916985799798, 22.986693125943614 ], [ 120.207852644444714, 22.986706288446545 ], [ 120.20779250888134, 22.986797629851711 ], [ 120.207718611616613, 22.986925105415256 ], [ 120.207558053882281, 22.986954146779592 ], [ 120.207386443619129, 22.986954483074239 ], [ 120.20719489391314, 22.987055067126843 ], [ 120.20703096779593, 22.987122586668342 ], [ 120.206837647555631, 22.987248001618678 ], [ 120.206667725724671, 22.987275309846549 ], [ 120.206337877011038, 22.987210855321106 ], [ 120.206039598285841, 22.987248783333815 ], [ 120.205897996988867, 22.987236366524613 ], [ 120.205828156937869, 22.98719757396605 ], [ 120.205700265778162, 22.986981639185249 ], [ 120.205478797541915, 22.986726314743628 ], [ 120.20539678076149, 22.986630334262184 ], [ 120.205285543886234, 22.986588681649266 ], [ 120.205056189234327, 22.986622891807453 ], [ 120.204868016079047, 22.986675466433102 ], [ 120.204698388772684, 22.986733868067397 ], [ 120.204535298318191, 22.986909852451259 ], [ 120.204399182285542, 22.987079349625262 ], [ 120.204333757542088, 22.987235496082672 ], [ 120.204264261592826, 22.987369134879103 ], [ 120.204186517169433, 22.987524904720487 ], [ 120.204143552853637, 22.98763459349626 ], [ 120.204101779273188, 22.987893376165754 ], [ 120.204048287191696, 22.988214219912521 ], [ 120.204002059228742, 22.988391607187573 ], [ 120.203908022265949, 22.988528415674352 ], [ 120.203718288078235, 22.988749763955781 ], [ 120.203469099739024, 22.988996991266479 ], [ 120.20337586408273, 22.989053864021201 ], [ 120.203202128769021, 22.989026617878402 ], [ 120.202995802605841, 22.989090603079465 ], [ 120.202601001411026, 22.989169427716813 ], [ 120.202306006009309, 22.98930651807154 ], [ 120.202007812214859, 22.989311602983765 ], [ 120.201666627223915, 22.989418915956037 ], [ 120.201486779030432, 22.989487083994138 ], [ 120.201339269295033, 22.989602587372612 ], [ 120.201263456440088, 22.989680571877933 ], [ 120.201062796534359, 22.989737821626814 ], [ 120.200784458095725, 22.989798320010919 ], [ 120.20041517168066, 22.98981773548546 ], [ 120.200121314787339, 22.989848554589145 ], [ 120.19988784468606, 22.989797167835963 ], [ 120.199754232892531, 22.989780758293517 ], [ 120.199581829661298, 22.989783710194878 ], [ 120.199489143937186, 22.989746925680226 ], [ 120.199395787858563, 22.989823864935754 ], [ 120.19936850506096, 22.989899226648046 ], [ 120.199373832455521, 22.99003955025622 ], [ 120.19929528622788, 22.990343123686721 ], [ 120.199192916945094, 22.990389755458569 ], [ 120.198999297294449, 22.990428063392212 ], [ 120.198883209308192, 22.990416107047064 ], [ 120.198764356067045, 22.990358065711206 ], [ 120.198510902752446, 22.990276505753044 ], [ 120.198247552202048, 22.990184279349155 ], [ 120.197992441443532, 22.99003390046526 ], [ 120.197866200723752, 22.989910933 ], [ 120.197701980430153, 22.989865287426287 ], [ 120.197332589036705, 22.989848022081141 ], [ 120.197209826807622, 22.989839980436653 ], [ 120.196596874175356, 22.989975222775787 ], [ 120.196339438454245, 22.990043682572988 ], [ 120.196125114783626, 22.990123359644414 ], [ 120.195918614672721, 22.990211848656362 ], [ 120.195947425125695, 22.990324795648526 ], [ 120.195909183657605, 22.990387765790445 ], [ 120.195846712000616, 22.990413456856526 ], [ 120.195796184070559, 22.990427920836559 ], [ 120.195683483768278, 22.990399791296383 ], [ 120.195602329509001, 22.990246227179107 ], [ 120.195595246621195, 22.990153564319606 ], [ 120.195521701636579, 22.989991054420326 ], [ 120.195374308115092, 22.989698636129582 ], [ 120.195269948583913, 22.989498202697344 ], [ 120.19514558945896, 22.988977972048513 ] ] } },
{ "type": "Feature", "properties": { "feature_id": "e616f5b7-05ab-44f5-8c07-f6b4deb5168c", "OID_": "0", "Name": "", "FolderPath": "", "SymbolID": "0", "AltMode": "0", "Base": "0", "Clamped": "0", "Extruded": "0", "Snippet": "", "PopupInfo": "", "Shape_Leng": "0" }, "geometry": { "type": "LineString", "coordinates": [ [ 120.196039668089782, 23.001482225989246 ], [ 120.195553255786294, 23.001749355926723 ], [ 120.195441129048334, 23.001856301345985 ], [ 120.195220319734119, 23.002077880722354 ], [ 120.194872247517537, 23.002440686243879 ], [ 120.193903400000053, 23.003459650000035 ] ] } },
{ "type": "Feature", "properties": { "feature_id": "a0b106e1-1510-4e9b-9649-f8b7c0535637", "OID_": "0", "Name": "", "FolderPath": "", "SymbolID": "0", "AltMode": "0", "Base": "0", "Clamped": "0", "Extruded": "0", "Snippet": "", "PopupInfo": "", "Shape_Leng": "0" }, "geometry": { "type": "LineString", "coordinates": [ [ 120.191844320000072, 22.99791996000004 ], [ 120.192410390000092, 22.998266750000013 ], [ 120.192564970000035, 22.998312330000026 ], [ 120.192790760000094, 22.99831647000007 ], [ 120.193276960000063, 22.998294850000036 ], [ 120.19379071000003, 22.998333510000066 ], [ 120.193966610000075, 22.998359520000058 ], [ 120.194160290000013, 22.99842644000006 ], [ 120.194399650000037, 22.998624530000018 ], [ 120.194505350000099, 22.998729240000042 ], [ 120.194577940000045, 22.998783920000051 ], [ 120.194768440000075, 22.998852970000019 ], [ 120.194925880000028, 22.998913070000064 ], [ 120.195275430000052, 22.998985720000057 ], [ 120.195340430000101, 22.999090190000047 ], [ 120.19537592000006, 22.999165590000072 ], [ 120.19553314000008, 22.999475550000046 ], [ 120.195758200000128, 22.999821930000046 ], [ 120.195817330000082, 22.999861660000079 ], [ 120.195877970000083, 22.999861960000022 ], [ 120.19597495000005, 22.999829010000038 ] ] } }
]
}
