{
  "type": "FeatureCollection",
  "features": [
    {
      "type": "Feature",
      "id": "1359",
      "geometry": {
        "type": "MultiPolygon",
        "coordinates": [
          [
            [
              [
                120.204671975182,
                23.028409015028
              ],
              [
                120.20467756439,
                23.028413868804
              ],
              [
                120.204686096523,
                23.028417154396
              ],
              [
                120.20469889169,
                23.028419024725
              ],
              [
                120.204712827399,
                23.028418728145
              ],
              [
                120.204766987494,
                23.028025934672
              ],
              [
                120.204756883543,
                23.028021668644
              ],
              [
                120.204741345498,
                23.028019704168
              ],
              [
                120.204725296845,
                23.028022290098
              ],
              [
                120.204671975182,
                23.028409015028
              ]
            ]
          ]
        ]
      },
      "properties": {
        "source": "nlma-sidewalk",
        "sourceKey": "nlma-sidewalk",
        "sourceVersion": "SIDEWALK_202606",
        "sourceFeatureId": "1359",
        "facilityType": "sidewalk",
        "pedestrianAllowed": true,
        "bicycleAllowed": null,
        "direction": "2",
        "provenance": [
          {
            "dataset": "nlma-sidewalk",
            "record_id": "1359"
          }
        ],
        "officialInventory": true,
        "name": "北安路二段",
        "originalCrs": "OGC:CRS84",
        "originalProperties": {
          "NAME": "北安路二段",
          "PSTART": "府安路五段",
          "PEND": "郡安路五段",
          "SW_DIRECT": "2",
          "SW_LENG": 43.85,
          "SW_WTH": 1.84,
          "SWW_WTH": 1.84,
          "SW_RAMP": 1,
          "COUNTY_NA": "台南市",
          "VILL_NAME": "安南區"
        }
      }
    },
    {
      "type": "Feature",
      "id": "1360",
      "geometry": {
        "type": "MultiPolygon",
        "coordinates": [
          [
            [
              [
                120.205426492101,
                23.028392774149
              ],
              [
                120.204997746613,
                23.028347085634
              ],
              [
                120.2049824516,
                23.02834526327
              ],
              [
                120.204977871047,
                23.028378194693
              ],
              [
                120.205000025241,
                23.028396070008
              ],
              [
                120.205012688063,
                23.028408363088
              ],
              [
                120.205031414123,
                23.028420876261
              ],
              [
                120.205050767987,
                23.028425490347
              ],
              [
                120.205080192588,
                23.028419244861
              ],
              [
                120.205250056324,
                23.028406859985
              ],
              [
                120.205297181962,
                23.028401584699
              ],
              [
                120.205396124571,
                23.028395108545
              ],
              [
                120.205426492101,
                23.028392774149
              ]
            ]
          ]
        ]
      },
      "properties": {
        "source": "nlma-sidewalk",
        "sourceKey": "nlma-sidewalk",
        "sourceVersion": "SIDEWALK_202606",
        "sourceFeatureId": "1360",
        "facilityType": "sidewalk",
        "pedestrianAllowed": true,
        "bicycleAllowed": null,
        "direction": "1",
        "provenance": [
          {
            "dataset": "nlma-sidewalk",
            "record_id": "1360"
          }
        ],
        "officialInventory": true,
        "name": "郡安路四段",
        "originalCrs": "OGC:CRS84",
        "originalProperties": {
          "NAME": "郡安路四段",
          "PSTART": "北安路二段",
          "PEND": "泰安街",
          "SW_DIRECT": "1",
          "SW_LENG": 45.82,
          "SW_WTH": 6.49,
          "SWW_WTH": 6.49,
          "SW_RAMP": 1,
          "COUNTY_NA": "台南市",
          "VILL_NAME": "安南區"
        }
      }
    },
    {
      "type": "Feature",
      "id": "1361",
      "geometry": {
        "type": "MultiPolygon",
        "coordinates": [
          [
            [
              [
                120.204956771474,
                23.028605186588
              ],
              [
                120.204942262463,
                23.028603420544
              ],
              [
                120.204886157415,
                23.028998168327
              ],
              [
                120.204841554406,
                23.029330445871
              ],
              [
                120.20485606449,
                23.029332208319
              ],
              [
                120.204956771474,
                23.028605186588
              ]
            ]
          ]
        ]
      },
      "properties": {
        "source": "nlma-sidewalk",
        "sourceKey": "nlma-sidewalk",
        "sourceVersion": "SIDEWALK_202606",
        "sourceFeatureId": "1361",
        "facilityType": "sidewalk",
        "pedestrianAllowed": true,
        "bicycleAllowed": null,
        "direction": "1",
        "provenance": [
          {
            "dataset": "nlma-sidewalk",
            "record_id": "1361"
          }
        ],
        "officialInventory": true,
        "name": "北安路二段",
        "originalCrs": "OGC:CRS84",
        "originalProperties": {
          "NAME": "北安路二段",
          "PSTART": "郡安路四段",
          "PEND": "安通路四段",
          "SW_DIRECT": "1",
          "SW_LENG": 81.17,
          "SW_WTH": 1.5,
          "SWW_WTH": 1.5,
          "SW_RAMP": 2,
          "COUNTY_NA": "台南市",
          "VILL_NAME": "安南區"
        }
      }
    },
    {
      "type": "Feature",
      "id": "1362",
      "geometry": {
        "type": "MultiPolygon",
        "coordinates": [
          [
            [
              [
                120.204565559497,
                23.029346499392
              ],
              [
                120.204579870957,
                23.029349688525
              ],
              [
                120.204681121069,
                23.02862164211
              ],
              [
                120.204666606965,
                23.028619913039
              ],
              [
                120.204565559497,
                23.029346499392
              ]
            ]
          ]
        ]
      },
      "properties": {
        "source": "nlma-sidewalk",
        "sourceKey": "nlma-sidewalk",
        "sourceVersion": "SIDEWALK_202606",
        "sourceFeatureId": "1362",
        "facilityType": "sidewalk",
        "pedestrianAllowed": true,
        "bicycleAllowed": null,
        "direction": "2",
        "provenance": [
          {
            "dataset": "nlma-sidewalk",
            "record_id": "1362"
          }
        ],
        "officialInventory": true,
        "name": "北安路二段",
        "originalCrs": "OGC:CRS84",
        "originalProperties": {
          "NAME": "北安路二段",
          "PSTART": "郡安路五段",
          "PEND": "安通路五段",
          "SW_DIRECT": "2",
          "SW_LENG": 81.29,
          "SW_WTH": 1.5,
          "SWW_WTH": 1.5,
          "SW_RAMP": 2,
          "COUNTY_NA": "台南市",
          "VILL_NAME": "安南區"
        }
      }
    },
    {
      "type": "Feature",
      "id": "1369",
      "geometry": {
        "type": "MultiPolygon",
        "coordinates": [
          [
            [
              [
                120.204846159306,
                23.029533535998
              ],
              [
                120.204832974571,
                23.029525709275
              ],
              [
                120.204832491357,
                23.029525589456
              ],
              [
                120.204832004156,
                23.029525484064
              ],
              [
                120.204831513932,
                23.029525394912
              ],
              [
                120.20483101971,
                23.029525321994
              ],
              [
                120.204830523448,
                23.029525264416
              ],
              [
                120.204830026114,
                23.029525223087
              ],
              [
                120.204829526734,
                23.029525198002
              ],
              [
                120.204829026288,
                23.029525188263
              ],
              [
                120.204828525746,
                23.029525194778
              ],
              [
                120.204828027066,
                23.029525216653
              ],
              [
                120.204827528286,
                23.029525255685
              ],
              [
                120.204827031371,
                23.029525309174
              ],
              [
                120.204826537283,
                23.029525379835
              ],
              [
                120.204826046032,
                23.029525465861
              ],
              [
                120.204825557617,
                23.029525567253
              ],
              [
                120.204825073985,
                23.029525684923
              ],
              [
                120.204824595147,
                23.029525817065
              ],
              [
                120.204824121096,
                23.029525964582
              ],
              [
                120.204823652809,
                23.029526127479
              ],
              [
                120.204823191261,
                23.029526305762
              ],
              [
                120.204822736464,
                23.029526497623
              ],
              [
                120.20482228938,
                23.029526704875
              ],
              [
                120.204821850023,
                23.02952692571
              ],
              [
                120.204821418385,
                23.029527161032
              ],
              [
                120.2048209974,
                23.029527409953
              ],
              [
                120.204820585121,
                23.02952767156
              ],
              [
                120.204820182519,
                23.029527946761
              ],
              [
                120.204819790574,
                23.029528234657
              ],
              [
                120.204819410268,
                23.029528534351
              ],
              [
                120.204819040619,
                23.029528846741
              ],
              [
                120.204818682614,
                23.029529170025
              ],
              [
                120.204818338199,
                23.029529505117
              ],
              [
                120.204818005427,
                23.029529851103
              ],
              [
                120.204817686256,
                23.029530207091
              ],
              [
                120.20481738068,
                23.029530573983
              ],
              [
                120.204817088709,
                23.029530949974
              ],
              [
                120.204816810349,
                23.02953133416
              ],
              [
                120.204816547541,
                23.029531728358
              ],
              [
                120.204816299324,
                23.029532129852
              ],
              [
                120.204816065694,
                23.029532539548
              ],
              [
                120.204815848613,
                23.029532955647
              ],
              [
                120.204744569023,
                23.029982666387
              ],
              [
                120.204716425542,
                23.030220467028
              ],
              [
                120.204665109142,
                23.030577190391
              ],
              [
                120.204654599456,
                23.030663984492
              ],
              [
                120.204632408133,
                23.030847241639
              ],
              [
                120.20457768395,
                23.031249234626
              ],
              [
                120.204566849483,
                23.031289939289
              ],
              [
                120.204536332682,
                23.031525557079
              ],
              [
                120.204527860251,
                23.031573407386
              ],
              [
                120.204502770137,
                23.031753464999
              ],
              [
                120.204485467717,
                23.031882977891
              ],
              [
                120.204463759795,
                23.032006404016
              ],
              [
                120.204440695638,
                23.032195156032
              ],
              [
                120.204444064533,
                23.032206800119
              ],
              [
                120.2044497742,
                23.032221407912
              ],
              [
                120.204458626892,
                23.032238436223
              ],
              [
                120.204464721136,
                23.032246533447
              ],
              [
                120.204470268147,
                23.032251619996
              ],
              [
                120.204476823423,
                23.032254143456
              ],
              [
                120.20449408228,
                23.032255899899
              ],
              [
                120.204495985181,
                23.032239880151
              ],
              [
                120.204466620666,
                23.032203164243
              ],
              [
                120.204466147866,
                23.032195783377
              ],
              [
                120.204488896342,
                23.032009611473
              ],
              [
                120.204510583043,
                23.03188630624
              ],
              [
                120.204527936489,
                23.031756407113
              ],
              [
                120.204552963385,
                23.03157680881
              ],
              [
                120.204561453002,
                23.031528854741
              ],
              [
                120.204591851167,
                23.031294160127
              ],
              [
                120.204602666682,
                23.031253524899
              ],
              [
                120.20465759677,
                23.030850015881
              ],
              [
                120.204680108964,
                23.030664112719
              ],
              [
                120.204690288463,
                23.030580047657
              ],
              [
                120.204741608869,
                23.030223295409
              ],
              [
                120.20476973384,
                23.029985649084
              ],
              [
                120.204840579716,
                23.029538675882
              ],
              [
                120.204846159306,
                23.029533535998
              ]
            ]
          ]
        ]
      },
      "properties": {
        "source": "nlma-sidewalk",
        "sourceKey": "nlma-sidewalk",
        "sourceVersion": "SIDEWALK_202606",
        "sourceFeatureId": "1369",
        "facilityType": "sidewalk",
        "pedestrianAllowed": true,
        "bicycleAllowed": null,
        "direction": "1",
        "provenance": [
          {
            "dataset": "nlma-sidewalk",
            "record_id": "1369"
          }
        ],
        "officialInventory": true,
        "name": "北安路二段",
        "originalCrs": "OGC:CRS84",
        "originalProperties": {
          "NAME": "北安路二段",
          "PSTART": "安通路四段",
          "PEND": "慈安路",
          "SW_DIRECT": "1",
          "SW_LENG": 306.19,
          "SW_WTH": 2.6,
          "SWW_WTH": 2.6,
          "SW_RAMP": 2,
          "COUNTY_NA": "台南市",
          "VILL_NAME": "安南區"
        }
      }
    },
    {
      "type": "Feature",
      "id": "1372",
      "geometry": {
        "type": "MultiPolygon",
        "coordinates": [
          [
            [
              [
                120.204463553547,
                23.030320630871
              ],
              [
                120.204525631719,
                23.029866151303
              ],
              [
                120.204530373084,
                23.029866859621
              ],
              [
                120.204548891904,
                23.02975727319
              ],
              [
                120.204572637494,
                23.029570659228
              ],
              [
                120.204553552013,
                23.029545058682
              ],
              [
                120.204526497321,
                23.029511179012
              ],
              [
                120.204526316079,
                23.029510807867
              ],
              [
                120.204503490226,
                23.029520414912
              ],
              [
                120.204504764806,
                23.029523007539
              ],
              [
                120.204533146363,
                23.029558550003
              ],
              [
                120.204546630885,
                23.029576636445
              ],
              [
                120.204524047162,
                23.029754121399
              ],
              [
                120.20450949453,
                23.029840229655
              ],
              [
                120.204503996736,
                23.029839407367
              ],
              [
                120.204503730962,
                23.02984147031
              ],
              [
                120.204438647432,
                23.03031794471
              ],
              [
                120.204436404326,
                23.030337409538
              ],
              [
                120.204428162956,
                23.030431340676
              ],
              [
                120.204397785348,
                23.030662692444
              ],
              [
                120.20438564208,
                23.030755166364
              ],
              [
                120.204352719175,
                23.030977984516
              ],
              [
                120.204335736682,
                23.031139584739
              ],
              [
                120.204314035625,
                23.031285607793
              ],
              [
                120.204299626942,
                23.031408962251
              ],
              [
                120.204289966118,
                23.031473094145
              ],
              [
                120.204248910034,
                23.031725448509
              ],
              [
                120.204234085757,
                23.031821192258
              ],
              [
                120.204173675425,
                23.032179370409
              ],
              [
                120.20411012277,
                23.032648920686
              ],
              [
                120.204082292136,
                23.032796592432
              ],
              [
                120.204075894866,
                23.032882456278
              ],
              [
                120.204042173441,
                23.033124090781
              ],
              [
                120.204041040464,
                23.033131937647
              ],
              [
                120.204027537868,
                23.033198945225
              ],
              [
                120.204024752184,
                23.033221398074
              ],
              [
                120.204001704066,
                23.033369729571
              ],
              [
                120.204002617264,
                23.033369734166
              ],
              [
                120.203973754549,
                23.033602372019
              ],
              [
                120.20396797103,
                23.033649503466
              ],
              [
                120.203961182056,
                23.033685427123
              ],
              [
                120.203951920243,
                23.033721101749
              ],
              [
                120.203948026636,
                23.033734506289
              ],
              [
                120.203887864905,
                23.033893281226
              ],
              [
                120.203760414597,
                23.034240072497
              ],
              [
                120.203553093764,
                23.034787245562
              ],
              [
                120.203468405806,
                23.035015507958
              ],
              [
                120.203320165659,
                23.035424989322
              ],
              [
                120.203328345479,
                23.035426699275
              ],
              [
                120.203334647367,
                23.035427204187
              ],
              [
                120.203341468011,
                23.035426765359
              ],
              [
                120.203345622719,
                23.035425726149
              ],
              [
                120.203491506283,
                23.035022759842
              ],
              [
                120.203576138691,
                23.034794647053
              ],
              [
                120.203783471342,
                23.034247441507
              ],
              [
                120.203910921589,
                23.033900652022
              ],
              [
                120.203971043677,
                23.033741978013
              ],
              [
                120.203975547262,
                23.033726714538
              ],
              [
                120.203985074626,
                23.033690013622
              ],
              [
                120.20399212528,
                23.03365272593
              ],
              [
                120.203997988773,
                23.033604933883
              ],
              [
                120.204027152615,
                23.033369857609
              ],
              [
                120.204049620038,
                23.033224374889
              ],
              [
                120.204052350223,
                23.033202400355
              ],
              [
                120.204065806687,
                23.033135603846
              ],
              [
                120.204067033198,
                23.033127114508
              ],
              [
                120.20410085842,
                23.032884743666
              ],
              [
                120.204105577974,
                23.032821399649
              ],
              [
                120.204134998752,
                23.032651825285
              ],
              [
                120.20419536508,
                23.032205825703
              ],
              [
                120.204258937147,
                23.031824271894
              ],
              [
                120.204277065261,
                23.031707208457
              ],
              [
                120.204311207272,
                23.031500148572
              ],
              [
                120.204324514727,
                23.031411812694
              ],
              [
                120.204338925466,
                23.031288436572
              ],
              [
                120.204363326415,
                23.031124247707
              ],
              [
                120.204373695284,
                23.031007298737
              ],
              [
                120.204410509514,
                23.030758139498
              ],
              [
                120.204423026549,
                23.03066282117
              ],
              [
                120.204453114043,
                23.030433682116
              ],
              [
                120.204461370062,
                23.030339579479
              ],
              [
                120.204463553547,
                23.030320630871
              ]
            ]
          ]
        ]
      },
      "properties": {
        "source": "nlma-sidewalk",
        "sourceKey": "nlma-sidewalk",
        "sourceVersion": "SIDEWALK_202606",
        "sourceFeatureId": "1372",
        "facilityType": "sidewalk",
        "pedestrianAllowed": true,
        "bicycleAllowed": null,
        "direction": "2",
        "provenance": [
          {
            "dataset": "nlma-sidewalk",
            "record_id": "1372"
          }
        ],
        "officialInventory": true,
        "name": "北安路二段",
        "originalCrs": "OGC:CRS84",
        "originalProperties": {
          "NAME": "北安路二段",
          "PSTART": "安通路五段",
          "PEND": "安中路一段",
          "SW_DIRECT": "2",
          "SW_LENG": 671.17,
          "SW_WTH": 2.57,
          "SWW_WTH": 2.57,
          "SW_RAMP": 3,
          "COUNTY_NA": "台南市",
          "VILL_NAME": "安南區"
        }
      }
    },
    {
      "type": "Feature",
      "id": "1484",
      "geometry": {
        "type": "MultiPolygon",
        "coordinates": [
          [
            [
              [
                120.205475286455,
                23.022873174932
              ],
              [
                120.205461783876,
                23.022871243332
              ],
              [
                120.205224520078,
                23.024579166902
              ],
              [
                120.205238067621,
                23.024580779086
              ],
              [
                120.205475286455,
                23.022873174932
              ]
            ]
          ],
          [
            [
              [
                120.205627486239,
                23.021705871393
              ],
              [
                120.205618394615,
                23.021703734388
              ],
              [
                120.205501133472,
                23.022536900797
              ],
              [
                120.205500620803,
                23.022541145984
              ],
              [
                120.205513716729,
                23.022541211726
              ],
              [
                120.205517226284,
                23.022538319844
              ],
              [
                120.20551985522,
                23.022535869628
              ],
              [
                120.205627142629,
                23.021764525621
              ],
              [
                120.20563256719,
                23.02171750961
              ],
              [
                120.205631650226,
                23.021709168414
              ],
              [
                120.205627486239,
                23.021705871393
              ]
            ]
          ]
        ]
      },
      "properties": {
        "source": "nlma-sidewalk",
        "sourceKey": "nlma-sidewalk",
        "sourceVersion": "SIDEWALK_202606",
        "sourceFeatureId": "1484",
        "facilityType": "sidewalk",
        "pedestrianAllowed": true,
        "bicycleAllowed": null,
        "direction": "2",
        "provenance": [
          {
            "dataset": "nlma-sidewalk",
            "record_id": "1484"
          }
        ],
        "officialInventory": true,
        "name": "北安路二段",
        "originalCrs": "OGC:CRS84",
        "originalProperties": {
          "NAME": "北安路二段",
          "PSTART": "中華北路二段",
          "PEND": "府安路五段",
          "SW_DIRECT": "2",
          "SW_LENG": 284.18,
          "SW_WTH": 1.4,
          "SWW_WTH": 1.4,
          "SW_RAMP": 0,
          "COUNTY_NA": "台南市",
          "VILL_NAME": "安南區"
        }
      }
    },
    {
      "type": "Feature",
      "id": "1485",
      "geometry": {
        "type": "MultiPolygon",
        "coordinates": [
          [
            [
              [
                120.205749352316,
                23.02291236684
              ],
              [
                120.205735853631,
                23.022910435283
              ],
              [
                120.205735070907,
                23.022915482795
              ],
              [
                120.205707812572,
                23.023116379591
              ],
              [
                120.205683068732,
                23.0232807243
              ],
              [
                120.205567726333,
                23.02412820208
              ],
              [
                120.205537088253,
                23.024330048061
              ],
              [
                120.205509771082,
                23.024543871974
              ],
              [
                120.205500913012,
                23.024612060761
              ],
              [
                120.205514460551,
                23.024613674728
              ],
              [
                120.20552333296,
                23.02454536862
              ],
              [
                120.205550633772,
                23.024331669238
              ],
              [
                120.205581265692,
                23.024129871986
              ],
              [
                120.205696610003,
                23.023282386979
              ],
              [
                120.205721351897,
                23.023118038646
              ],
              [
                120.205748608102,
                23.022917168927
              ],
              [
                120.205749352316,
                23.02291236684
              ]
            ]
          ],
          [
            [
              [
                120.205906153847,
                23.021756512774
              ],
              [
                120.205885953369,
                23.02175585336
              ],
              [
                120.205772141677,
                23.022559349936
              ],
              [
                120.205772097967,
                23.022567478617
              ],
              [
                120.205772065523,
                23.022573017521
              ],
              [
                120.205772871828,
                23.022576268793
              ],
              [
                120.205776368473,
                23.022578578181
              ],
              [
                120.205782450927,
                23.022580136598
              ],
              [
                120.205787508504,
                23.022580449135
              ],
              [
                120.205791684674,
                23.022555687872
              ],
              [
                120.205906153847,
                23.021756512774
              ]
            ]
          ]
        ]
      },
      "properties": {
        "source": "nlma-sidewalk",
        "sourceKey": "nlma-sidewalk",
        "sourceVersion": "SIDEWALK_202606",
        "sourceFeatureId": "1485",
        "facilityType": "sidewalk",
        "pedestrianAllowed": true,
        "bicycleAllowed": null,
        "direction": "1",
        "provenance": [
          {
            "dataset": "nlma-sidewalk",
            "record_id": "1485"
          }
        ],
        "officialInventory": true,
        "name": "北安路二段",
        "originalCrs": "OGC:CRS84",
        "originalProperties": {
          "NAME": "北安路二段",
          "PSTART": "中華北路二段",
          "PEND": "府安路四段",
          "SW_DIRECT": "1",
          "SW_LENG": 282.0,
          "SW_WTH": 1.4,
          "SWW_WTH": 1.4,
          "SW_RAMP": 0,
          "COUNTY_NA": "台南市",
          "VILL_NAME": "安南區"
        }
      }
    },
    {
      "type": "Feature",
      "id": "1486",
      "geometry": {
        "type": "MultiPolygon",
        "coordinates": [
          [
            [
              [
                120.205060790362,
                23.024558026821
              ],
              [
                120.205010376169,
                23.024902414612
              ],
              [
                120.205001584294,
                23.025014504433
              ],
              [
                120.205000334986,
                23.025022414847
              ],
              [
                120.205016746315,
                23.025024634715
              ],
              [
                120.205018081782,
                23.025016172995
              ],
              [
                120.205026879974,
                23.024904001933
              ],
              [
                120.205074155773,
                23.024581051184
              ],
              [
                120.205060790362,
                23.024558026821
              ]
            ]
          ]
        ]
      },
      "properties": {
        "source": "nlma-sidewalk",
        "sourceKey": "nlma-sidewalk",
        "sourceVersion": "SIDEWALK_202606",
        "sourceFeatureId": "1486",
        "facilityType": "sidewalk",
        "pedestrianAllowed": true,
        "bicycleAllowed": null,
        "direction": "1",
        "provenance": [
          {
            "dataset": "nlma-sidewalk",
            "record_id": "1486"
          }
        ],
        "officialInventory": true,
        "name": "北安路二段",
        "originalCrs": "OGC:CRS84",
        "originalProperties": {
          "NAME": "北安路二段",
          "PSTART": "府安路五段",
          "PEND": "郡安路五段",
          "SW_DIRECT": "1",
          "SW_LENG": 50.48,
          "SW_WTH": 1.7,
          "SWW_WTH": 1.7,
          "SW_RAMP": 0,
          "COUNTY_NA": "台南市",
          "VILL_NAME": "安南區"
        }
      }
    },
    {
      "type": "Feature",
      "id": "1487",
      "geometry": {
        "type": "MultiPolygon",
        "coordinates": [
          [
            [
              [
                120.205750647082,
                23.024640729711
              ],
              [
                120.206471089495,
                23.024694839257
              ],
              [
                120.206473054923,
                23.024680908438
              ],
              [
                120.206470976774,
                23.024676260157
              ],
              [
                120.206466296937,
                23.02467273572
              ],
              [
                120.205757562597,
                23.024619505751
              ],
              [
                120.205752455883,
                23.02462423718
              ],
              [
                120.205750702292,
                23.02463130527
              ],
              [
                120.205750664649,
                23.024637730902
              ],
              [
                120.205750647082,
                23.024640729711
              ]
            ]
          ]
        ]
      },
      "properties": {
        "source": "nlma-sidewalk",
        "sourceKey": "nlma-sidewalk",
        "sourceVersion": "SIDEWALK_202606",
        "sourceFeatureId": "1487",
        "facilityType": "sidewalk",
        "pedestrianAllowed": true,
        "bicycleAllowed": null,
        "direction": "2",
        "provenance": [
          {
            "dataset": "nlma-sidewalk",
            "record_id": "1487"
          }
        ],
        "officialInventory": true,
        "name": "府安路四段",
        "originalCrs": "OGC:CRS84",
        "originalProperties": {
          "NAME": "府安路四段",
          "PSTART": "北安路二段",
          "PEND": "安和路一段",
          "SW_DIRECT": "2",
          "SW_LENG": 74.12,
          "SW_WTH": 2.4,
          "SWW_WTH": 2.4,
          "SW_RAMP": 2,
          "COUNTY_NA": "台南市",
          "VILL_NAME": "安南區"
        }
      }
    },
    {
      "type": "Feature",
      "id": "1488",
      "geometry": {
        "type": "MultiPolygon",
        "coordinates": [
          [
            [
              [
                120.204960652842,
                23.026638026353
              ],
              [
                120.205032364793,
                23.026118092166
              ],
              [
                120.205024826245,
                23.026113761386
              ],
              [
                120.205018401892,
                23.026111586269
              ],
              [
                120.205013601911,
                23.026110081219
              ],
              [
                120.205001041763,
                23.026108597686
              ],
              [
                120.20499114956,
                23.02611100237
              ],
              [
                120.204919135866,
                23.026633120304
              ],
              [
                120.204920506401,
                23.026640142674
              ],
              [
                120.204927496741,
                23.02664379706
              ],
              [
                120.204940210385,
                23.026645067358
              ],
              [
                120.204951956917,
                23.026644221559
              ],
              [
                120.204957021269,
                23.026642738977
              ],
              [
                120.204960652842,
                23.026638026353
              ]
            ]
          ]
        ]
      },
      "properties": {
        "source": "nlma-sidewalk",
        "sourceKey": "nlma-sidewalk",
        "sourceVersion": "SIDEWALK_202606",
        "sourceFeatureId": "1488",
        "facilityType": "sidewalk",
        "pedestrianAllowed": true,
        "bicycleAllowed": null,
        "direction": "2",
        "provenance": [
          {
            "dataset": "nlma-sidewalk",
            "record_id": "1488"
          }
        ],
        "officialInventory": true,
        "name": "北安路二段",
        "originalCrs": "OGC:CRS84",
        "originalProperties": {
          "NAME": "北安路二段",
          "PSTART": "府安路五段",
          "PEND": "郡安路五段",
          "SW_DIRECT": "2",
          "SW_LENG": 59.84,
          "SW_WTH": 4.4,
          "SWW_WTH": 3.0,
          "SW_RAMP": 1,
          "COUNTY_NA": "台南市",
          "VILL_NAME": "安南區"
        }
      }
    },
    {
      "type": "Feature",
      "id": "1489",
      "geometry": {
        "type": "MultiPolygon",
        "coordinates": [
          [
            [
              [
                120.205167777221,
                23.027121331917
              ],
              [
                120.205218238258,
                23.026762734651
              ],
              [
                120.205200825023,
                23.026760635286
              ],
              [
                120.205150350728,
                23.02711932278
              ],
              [
                120.205167777221,
                23.027121331917
              ]
            ]
          ]
        ]
      },
      "properties": {
        "source": "nlma-sidewalk",
        "sourceKey": "nlma-sidewalk",
        "sourceVersion": "SIDEWALK_202606",
        "sourceFeatureId": "1489",
        "facilityType": "sidewalk",
        "pedestrianAllowed": true,
        "bicycleAllowed": null,
        "direction": "1",
        "provenance": [
          {
            "dataset": "nlma-sidewalk",
            "record_id": "1489"
          }
        ],
        "officialInventory": true,
        "name": "北安路二段",
        "originalCrs": "OGC:CRS84",
        "originalProperties": {
          "NAME": "北安路二段",
          "PSTART": "聖安街",
          "PEND": "郡安路四段",
          "SW_DIRECT": "1",
          "SW_LENG": 40.05,
          "SW_WTH": 1.9,
          "SWW_WTH": 1.9,
          "SW_RAMP": 2,
          "COUNTY_NA": "台南市",
          "VILL_NAME": "安南區"
        }
      }
    },
    {
      "type": "Feature",
      "id": "1490",
      "geometry": {
        "type": "MultiPolygon",
        "coordinates": [
          [
            [
              [
                120.204868288314,
                23.027294352944
              ],
              [
                120.204941497062,
                23.02674357685
              ],
              [
                120.204922796608,
                23.026734888948
              ],
              [
                120.20490068124,
                23.026733396226
              ],
              [
                120.204825985256,
                23.027295354922
              ],
              [
                120.20483769192,
                23.027302147493
              ],
              [
                120.204848253709,
                23.027302200565
              ],
              [
                120.204864852577,
                23.027301934508
              ],
              [
                120.204868288314,
                23.027294352944
              ]
            ]
          ]
        ]
      },
      "properties": {
        "source": "nlma-sidewalk",
        "sourceKey": "nlma-sidewalk",
        "sourceVersion": "SIDEWALK_202606",
        "sourceFeatureId": "1490",
        "facilityType": "sidewalk",
        "pedestrianAllowed": true,
        "bicycleAllowed": null,
        "direction": "2",
        "provenance": [
          {
            "dataset": "nlma-sidewalk",
            "record_id": "1490"
          }
        ],
        "officialInventory": true,
        "name": "北安路二段",
        "originalCrs": "OGC:CRS84",
        "originalProperties": {
          "NAME": "北安路二段",
          "PSTART": "府安路五段",
          "PEND": "郡安路五段",
          "SW_DIRECT": "2",
          "SW_LENG": 63.42,
          "SW_WTH": 4.4,
          "SWW_WTH": 3.0,
          "SW_RAMP": 1,
          "COUNTY_NA": "台南市",
          "VILL_NAME": "安南區"
        }
      }
    },
    {
      "type": "Feature",
      "id": "1491",
      "geometry": {
        "type": "MultiPolygon",
        "coordinates": [
          [
            [
              [
                120.204854314805,
                23.027388770063
              ],
              [
                120.204844210898,
                23.027384504042
              ],
              [
                120.204828672918,
                23.027382540479
              ],
              [
                120.204812624348,
                23.027385125517
              ],
              [
                120.204734660431,
                23.027950532534
              ],
              [
                120.204740249624,
                23.027955386308
              ],
              [
                120.20474878076,
                23.027958670988
              ],
              [
                120.204754532583,
                23.027959917152
              ],
              [
                120.204769121856,
                23.027960795054
              ],
              [
                120.204775512522,
                23.027960244729
              ],
              [
                120.204776159489,
                23.027955566778
              ],
              [
                120.204854314805,
                23.027388770063
              ]
            ]
          ]
        ]
      },
      "properties": {
        "source": "nlma-sidewalk",
        "sourceKey": "nlma-sidewalk",
        "sourceVersion": "SIDEWALK_202606",
        "sourceFeatureId": "1491",
        "facilityType": "sidewalk",
        "pedestrianAllowed": true,
        "bicycleAllowed": null,
        "direction": "2",
        "provenance": [
          {
            "dataset": "nlma-sidewalk",
            "record_id": "1491"
          }
        ],
        "officialInventory": true,
        "name": "北安路二段",
        "originalCrs": "OGC:CRS84",
        "originalProperties": {
          "NAME": "北安路二段",
          "PSTART": "府安路五段",
          "PEND": "郡安路五段",
          "SW_DIRECT": "2",
          "SW_LENG": 64.42,
          "SW_WTH": 4.4,
          "SWW_WTH": 3.0,
          "SW_RAMP": 1,
          "COUNTY_NA": "台南市",
          "VILL_NAME": "安南區"
        }
      }
    },
    {
      "type": "Feature",
      "id": "1492",
      "geometry": {
        "type": "MultiPolygon",
        "coordinates": [
          [
            [
              [
                120.205053268767,
                23.027956960053
              ],
              [
                120.205153567054,
                23.027235850687
              ],
              [
                120.205133818253,
                23.027250533759
              ],
              [
                120.205035573342,
                23.027956871155
              ],
              [
                120.2049824516,
                23.02834526327
              ],
              [
                120.204997746608,
                23.028347086537
              ],
              [
                120.205053268767,
                23.027956960053
              ]
            ]
          ]
        ]
      },
      "properties": {
        "source": "nlma-sidewalk",
        "sourceKey": "nlma-sidewalk",
        "sourceVersion": "SIDEWALK_202606",
        "sourceFeatureId": "1492",
        "facilityType": "sidewalk",
        "pedestrianAllowed": true,
        "bicycleAllowed": null,
        "direction": "1",
        "provenance": [
          {
            "dataset": "nlma-sidewalk",
            "record_id": "1492"
          }
        ],
        "officialInventory": true,
        "name": "北安路二段",
        "originalCrs": "OGC:CRS84",
        "originalProperties": {
          "NAME": "北安路二段",
          "PSTART": "聖安街",
          "PEND": "郡安路四段",
          "SW_DIRECT": "1",
          "SW_LENG": 123.4,
          "SW_WTH": 1.9,
          "SWW_WTH": 1.9,
          "SW_RAMP": 9,
          "COUNTY_NA": "台南市",
          "VILL_NAME": "安南區"
        }
      }
    },
    {
      "type": "Feature",
      "id": "1656",
      "geometry": {
        "type": "MultiPolygon",
        "coordinates": [
          [
            [
              [
                120.198405184009,
                23.027142778158
              ],
              [
                120.1980202563,
                23.027067945947
              ],
              [
                120.198017123061,
                23.027069848058
              ],
              [
                120.197981012395,
                23.027091783339
              ],
              [
                120.197972573116,
                23.027126770083
              ],
              [
                120.198011521091,
                23.027134816433
              ],
              [
                120.198049854412,
                23.027111530672
              ],
              [
                120.198396628585,
                23.027178945474
              ],
              [
                120.198519242082,
                23.027204802034
              ],
              [
                120.198772218583,
                23.027252719936
              ],
              [
                120.198779511402,
                23.027216231959
              ],
              [
                120.198776417774,
                23.027215725058
              ],
              [
                120.198527696142,
                23.027168612526
              ],
              [
                120.198405184009,
                23.027142778158
              ]
            ]
          ],
          [
            [
              [
                120.199187250671,
                23.027263874407
              ],
              [
                120.199186394121,
                23.02726386646
              ],
              [
                120.199185539341,
                23.027263889225
              ],
              [
                120.199184684412,
                23.027263937273
              ],
              [
                120.199183835177,
                23.02726401244
              ],
              [
                120.199182985771,
                23.027264116502
              ],
              [
                120.199182142058,
                23.027264247684
              ],
              [
                120.199181304039,
                23.027264405984
              ],
              [
                120.199180471724,
                23.027264589598
              ],
              [
                120.199179647043,
                23.027264802147
              ],
              [
                120.19917883392,
                23.027265040038
              ],
              [
                120.199178026501,
                23.027265303242
              ],
              [
                120.19917723063,
                23.027265593596
              ],
              [
                120.199176444364,
                23.027265909282
              ],
              [
                120.19917567357,
                23.027266248524
              ],
              [
                120.199174914322,
                23.027266614916
              ],
              [
                120.199174168605,
                23.027267003047
              ],
              [
                120.1991734403,
                23.027267416552
              ],
              [
                120.199172725513,
                23.027267853603
              ],
              [
                120.19917202816,
                23.027268312414
              ],
              [
                120.19917135019,
                23.027268792996
              ],
              [
                120.199170689653,
                23.027269295338
              ],
              [
                120.1991700485,
                23.027269819451
              ],
              [
                120.199169426741,
                23.027270363527
              ],
              [
                120.199168826328,
                23.027270927578
              ],
              [
                120.199168249223,
                23.027271509808
              ],
              [
                120.199167691512,
                23.027272112001
              ],
              [
                120.199167157119,
                23.027272730567
              ],
              [
                120.199166646045,
                23.027273365505
              ],
              [
                120.199166162191,
                23.027274016834
              ],
              [
                120.199165699704,
                23.027274684526
              ],
              [
                120.199165264459,
                23.027275364998
              ],
              [
                120.199164854494,
                23.027276060047
              ],
              [
                120.199164471771,
                23.027276767875
              ],
              [
                120.199164114339,
                23.027277488473
              ],
              [
                120.19916378417,
                23.027278218239
              ],
              [
                120.199163483205,
                23.027278958989
              ],
              [
                120.199163209503,
                23.027279708908
              ],
              [
                120.199162965026,
                23.027280466198
              ],
              [
                120.199162747812,
                23.027281232656
              ],
              [
                120.199162561786,
                23.02728200469
              ],
              [
                120.199162403033,
                23.027282784087
              ],
              [
                120.199162271586,
                23.027283565427
              ],
              [
                120.199162173278,
                23.027284352353
              ],
              [
                120.199162104226,
                23.027285141234
              ],
              [
                120.199162062481,
                23.027285932058
              ],
              [
                120.199287601691,
                23.027310376081
              ],
              [
                120.199952216294,
                23.027440160768
              ],
              [
                120.200248415366,
                23.027497099192
              ],
              [
                120.200278130365,
                23.027502817324
              ],
              [
                120.20027742032,
                23.027492528462
              ],
              [
                120.200275998489,
                23.027483160684
              ],
              [
                120.200267665636,
                23.027473080722
              ],
              [
                120.199952372513,
                23.02741369075
              ],
              [
                120.199259891401,
                23.027277783527
              ],
              [
                120.199243428322,
                23.027274552329
              ],
              [
                120.199193158156,
                23.027264684503
              ],
              [
                120.199192328082,
                23.027264488864
              ],
              [
                120.199191493956,
                23.027264318489
              ],
              [
                120.199190653816,
                23.027264175174
              ],
              [
                120.199189807673,
                23.027264057113
              ],
              [
                120.199188955495,
                23.027263969723
              ],
              [
                120.199188103168,
                23.027263907618
              ],
              [
                120.199187250671,
                23.027263874407
              ]
            ]
          ]
        ]
      },
      "properties": {
        "source": "nlma-sidewalk",
        "sourceKey": "nlma-sidewalk",
        "sourceVersion": "SIDEWALK_202606",
        "sourceFeatureId": "1656",
        "facilityType": "sidewalk",
        "pedestrianAllowed": true,
        "bicycleAllowed": null,
        "direction": "1",
        "provenance": [
          {
            "dataset": "nlma-sidewalk",
            "record_id": "1656"
          }
        ],
        "officialInventory": true,
        "name": "安富街",
        "originalCrs": "OGC:CRS84",
        "originalProperties": {
          "NAME": "安富街",
          "PSTART": "安寧街",
          "PEND": "無路名",
          "SW_DIRECT": "1",
          "SW_LENG": 200.49,
          "SW_WTH": 3.56,
          "SWW_WTH": 3.56,
          "SW_RAMP": 3,
          "COUNTY_NA": "台南市",
          "VILL_NAME": "安南區"
        }
      }
    },
    {
      "type": "Feature",
      "id": "1657",
      "geometry": {
        "type": "MultiPolygon",
        "coordinates": [
          [
            [
              [
                120.199142393661,
                23.027162448986
              ],
              [
                120.199074130079,
                23.027148466249
              ],
              [
                120.199093239964,
                23.027175978323
              ],
              [
                120.199094966915,
                23.027177942981
              ],
              [
                120.199098472107,
                23.027180456638
              ],
              [
                120.199952766764,
                23.027346888134
              ],
              [
                120.200225536009,
                23.027400027472
              ],
              [
                120.200786643876,
                23.027509338032
              ],
              [
                120.200791999833,
                23.027481574073
              ],
              [
                120.199952924698,
                23.027320127356
              ],
              [
                120.199280971107,
                23.027190832906
              ],
              [
                120.199142393661,
                23.027162448986
              ]
            ]
          ]
        ]
      },
      "properties": {
        "source": "nlma-sidewalk",
        "sourceKey": "nlma-sidewalk",
        "sourceVersion": "SIDEWALK_202606",
        "sourceFeatureId": "1657",
        "facilityType": "sidewalk",
        "pedestrianAllowed": true,
        "bicycleAllowed": null,
        "direction": "2",
        "provenance": [
          {
            "dataset": "nlma-sidewalk",
            "record_id": "1657"
          }
        ],
        "officialInventory": true,
        "name": "安富街",
        "originalCrs": "OGC:CRS84",
        "originalProperties": {
          "NAME": "安富街",
          "PSTART": "安寧街",
          "PEND": "無路名",
          "SW_DIRECT": "2",
          "SW_LENG": 179.91,
          "SW_WTH": 3.56,
          "SWW_WTH": 3.56,
          "SW_RAMP": 1,
          "COUNTY_NA": "台南市",
          "VILL_NAME": "安南區"
        }
      }
    },
    {
      "type": "Feature",
      "id": "1659",
      "geometry": {
        "type": "MultiPolygon",
        "coordinates": [
          [
            [
              [
                120.197819456498,
                23.027959154936
              ],
              [
                120.197829088318,
                23.027920502619
              ],
              [
                120.197830776102,
                23.027920511175
              ],
              [
                120.197855394986,
                23.027811377345
              ],
              [
                120.197855431112,
                23.027811207762
              ],
              [
                120.197928591537,
                23.027479083582
              ],
              [
                120.198011521091,
                23.027134816433
              ],
              [
                120.197972573116,
                23.027126770083
              ],
              [
                120.19788955187,
                23.027471018685
              ],
              [
                120.197816219107,
                23.027803893275
              ],
              [
                120.197789959052,
                23.027920304252
              ],
              [
                120.197685323011,
                23.028384173018
              ],
              [
                120.19755611064,
                23.028941214073
              ],
              [
                120.197589237229,
                23.028977818458
              ],
              [
                120.197598933537,
                23.028927308182
              ],
              [
                120.197610220289,
                23.02887446176
              ],
              [
                120.197637299157,
                23.028768123532
              ],
              [
                120.197716783393,
                23.028425677683
              ],
              [
                120.197764392808,
                23.028201044638
              ],
              [
                120.197786180817,
                23.028110986075
              ],
              [
                120.197792137085,
                23.028079158127
              ],
              [
                120.197819456498,
                23.027959154936
              ]
            ]
          ]
        ]
      },
      "properties": {
        "source": "nlma-sidewalk",
        "sourceKey": "nlma-sidewalk",
        "sourceVersion": "SIDEWALK_202606",
        "sourceFeatureId": "1659",
        "facilityType": "sidewalk",
        "pedestrianAllowed": true,
        "bicycleAllowed": null,
        "direction": "1",
        "provenance": [
          {
            "dataset": "nlma-sidewalk",
            "record_id": "1659"
          }
        ],
        "officialInventory": true,
        "name": "郡安路五段153巷",
        "originalCrs": "OGC:CRS84",
        "originalProperties": {
          "NAME": "郡安路五段153巷",
          "PSTART": "安富街",
          "PEND": "郡安路五段",
          "SW_DIRECT": "1",
          "SW_LENG": 208.64,
          "SW_WTH": 5.53,
          "SWW_WTH": 5.53,
          "SW_RAMP": 3,
          "COUNTY_NA": "台南市",
          "VILL_NAME": "安南區"
        }
      }
    },
    {
      "type": "Feature",
      "id": "1660",
      "geometry": {
        "type": "MultiPolygon",
        "coordinates": [
          [
            [
              [
                120.200538883839,
                23.028758028011
              ],
              [
                120.200534722719,
                23.028728093911
              ],
              [
                120.199944349208,
                23.028773122962
              ],
              [
                120.199632849216,
                23.028796882469
              ],
              [
                120.199574753958,
                23.028802862709
              ],
              [
                120.199139927969,
                23.028838832713
              ],
              [
                120.199094697475,
                23.028840834214
              ],
              [
                120.199096704262,
                23.028865783667
              ],
              [
                120.199103296511,
                23.028870920839
              ],
              [
                120.199123560649,
                23.028876827946
              ],
              [
                120.19917360852,
                23.028875210215
              ],
              [
                120.199386466777,
                23.02885533756
              ],
              [
                120.199643866631,
                23.028830495811
              ],
              [
                120.199944139309,
                23.028808686003
              ],
              [
                120.199951354281,
                23.028808162617
              ],
              [
                120.200108447374,
                23.028795185939
              ],
              [
                120.200264855539,
                23.028783202565
              ],
              [
                120.200538883839,
                23.028758028011
              ]
            ]
          ],
          [
            [
              [
                120.197593730885,
                23.028982782508
              ],
              [
                120.198980244484,
                23.028879210658
              ],
              [
                120.198992335858,
                23.028871062615
              ],
              [
                120.199000706505,
                23.028855426951
              ],
              [
                120.199002663345,
                23.028844907775
              ],
              [
                120.198928065418,
                23.028848209892
              ],
              [
                120.198876071596,
                23.028852066184
              ],
              [
                120.19775354319,
                23.028935888714
              ],
              [
                120.197621539578,
                23.028949622378
              ],
              [
                120.197598932561,
                23.028927308177
              ],
              [
                120.197589237234,
                23.028977817555
              ],
              [
                120.197593730885,
                23.028982782508
              ]
            ]
          ]
        ]
      },
      "properties": {
        "source": "nlma-sidewalk",
        "sourceKey": "nlma-sidewalk",
        "sourceVersion": "SIDEWALK_202606",
        "sourceFeatureId": "1660",
        "facilityType": "sidewalk",
        "pedestrianAllowed": true,
        "bicycleAllowed": null,
        "direction": "1",
        "provenance": [
          {
            "dataset": "nlma-sidewalk",
            "record_id": "1660"
          }
        ],
        "officialInventory": true,
        "name": "郡安路五段",
        "originalCrs": "OGC:CRS84",
        "originalProperties": {
          "NAME": "郡安路五段",
          "PSTART": "安寧街",
          "PEND": "北安路二段",
          "SW_DIRECT": "1",
          "SW_LENG": 293.44,
          "SW_WTH": 3.86,
          "SWW_WTH": 2.36,
          "SW_RAMP": 5,
          "COUNTY_NA": "台南市",
          "VILL_NAME": "安南區"
        }
      }
    },
    {
      "type": "Feature",
      "id": "4418",
      "geometry": {
        "type": "MultiPolygon",
        "coordinates": [
          [
            [
              [
                120.190617530492,
                23.029831078459
              ],
              [
                120.191469914667,
                23.030071970152
              ],
              [
                120.191949892526,
                23.030176480006
              ],
              [
                120.193562695322,
                23.03026046162
              ],
              [
                120.204408102148,
                23.029382250752
              ],
              [
                120.204408796653,
                23.029390254909
              ],
              [
                120.204509804415,
                23.029381958408
              ],
              [
                120.204552737841,
                23.029359436467
              ],
              [
                120.20446099081,
                23.02936907086
              ],
              [
                120.204195729259,
                23.02936659918
              ],
              [
                120.193559396896,
                23.030219592738
              ],
              [
                120.191955993327,
                23.030133419644
              ],
              [
                120.191474626045,
                23.030029607057
              ],
              [
                120.190604658785,
                23.029790738488
              ],
              [
                120.190587314733,
                23.029759225111
              ],
              [
                120.19058301889,
                23.029751563693
              ],
              [
                120.190569069142,
                23.029749614077
              ],
              [
                120.190567795715,
                23.029755368749
              ],
              [
                120.190617530492,
                23.029831078459
              ]
            ]
          ]
        ]
      },
      "properties": {
        "source": "nlma-sidewalk",
        "sourceKey": "nlma-sidewalk",
        "sourceVersion": "SIDEWALK_202606",
        "sourceFeatureId": "4418",
        "facilityType": "sidewalk",
        "pedestrianAllowed": true,
        "bicycleAllowed": null,
        "direction": "1",
        "provenance": [
          {
            "dataset": "nlma-sidewalk",
            "record_id": "4418"
          }
        ],
        "officialInventory": true,
        "name": "安通路五段",
        "originalCrs": "OGC:CRS84",
        "originalProperties": {
          "NAME": "安通路五段",
          "PSTART": "海佃路一段",
          "PEND": "北安路二段",
          "SW_DIRECT": "1",
          "SW_LENG": 1446.08,
          "SW_WTH": 4.0,
          "SWW_WTH": 4.0,
          "SW_RAMP": 2,
          "COUNTY_NA": "台南市",
          "VILL_NAME": "安南區"
        }
      }
    },
    {
      "type": "Feature",
      "id": "4419",
      "geometry": {
        "type": "MultiPolygon",
        "coordinates": [
          [
            [
              [
                120.204898343885,
                23.029320212991
              ],
              [
                120.204916294437,
                23.029342038631
              ],
              [
                120.204948420199,
                23.029350697376
              ],
              [
                120.206454772182,
                23.029233138062
              ],
              [
                120.207635871555,
                23.029159357337
              ],
              [
                120.207821931111,
                23.029138381923
              ],
              [
                120.209117459493,
                23.029059952571
              ],
              [
                120.20911809075,
                23.029062122951
              ],
              [
                120.209578746332,
                23.0290204933
              ],
              [
                120.209578868761,
                23.029017902272
              ],
              [
                120.210531981318,
                23.028925207622
              ],
              [
                120.211055273314,
                23.028931953402
              ],
              [
                120.211553898852,
                23.028984411365
              ],
              [
                120.212173120858,
                23.029114513127
              ],
              [
                120.212743854968,
                23.029303392039
              ],
              [
                120.213220047429,
                23.029518121618
              ],
              [
                120.213507129545,
                23.029664445969
              ],
              [
                120.213517953803,
                23.029645193399
              ],
              [
                120.213221644389,
                23.029493441243
              ],
              [
                120.212755953784,
                23.029283080311
              ],
              [
                120.212176294691,
                23.029080422215
              ],
              [
                120.211666597044,
                23.028948771184
              ],
              [
                120.21163938485,
                23.028928931915
              ],
              [
                120.211602989779,
                23.028916171641
              ],
              [
                120.211562341971,
                23.028914975796
              ],
              [
                120.211520950388,
                23.028927592297
              ],
              [
                120.211450950125,
                23.028917247139
              ],
              [
                120.211048278736,
                23.028894949274
              ],
              [
                120.210530939956,
                23.028882887355
              ],
              [
                120.20962811181,
                23.028977287031
              ],
              [
                120.209556238651,
                23.028975275498
              ],
              [
                120.209556388794,
                23.028957893299
              ],
              [
                120.209536975706,
                23.028949172572
              ],
              [
                120.209430629368,
                23.02895787907
              ],
              [
                120.209406497305,
                23.028977064859
              ],
              [
                120.20937122314,
                23.028979579581
              ],
              [
                120.20937202238,
                23.028998113346
              ],
              [
                120.209322298898,
                23.029003996328
              ],
              [
                120.209318380248,
                23.028985013531
              ],
              [
                120.209279789223,
                23.028987475538
              ],
              [
                120.209252853315,
                23.028970508819
              ],
              [
                120.209147591454,
                23.028978949642
              ],
              [
                120.209134512105,
                23.029010047155
              ],
              [
                120.207833903873,
                23.029074653232
              ],
              [
                120.207822537283,
                23.029104774923
              ],
              [
                120.20781163973,
                23.029106390933
              ],
              [
                120.207813023674,
                23.029118326625
              ],
              [
                120.206447778618,
                23.029212839448
              ],
              [
                120.204898343885,
                23.029320212991
              ]
            ]
          ]
        ]
      },
      "properties": {
        "source": "nlma-sidewalk",
        "sourceKey": "nlma-sidewalk",
        "sourceVersion": "SIDEWALK_202606",
        "sourceFeatureId": "4419",
        "facilityType": "sidewalk",
        "pedestrianAllowed": true,
        "bicycleAllowed": null,
        "direction": "1",
        "provenance": [
          {
            "dataset": "nlma-sidewalk",
            "record_id": "4419"
          }
        ],
        "officialInventory": true,
        "name": "安通路四段",
        "originalCrs": "OGC:CRS84",
        "originalProperties": {
          "NAME": "安通路四段",
          "PSTART": "北安路二段",
          "PEND": "安和路一段",
          "SW_DIRECT": "1",
          "SW_LENG": 901.03,
          "SW_WTH": 3.0,
          "SWW_WTH": 3.0,
          "SW_RAMP": 2,
          "COUNTY_NA": "台南市",
          "VILL_NAME": "安南區"
        }
      }
    },
    {
      "type": "Feature",
      "id": "4476",
      "geometry": {
        "type": "MultiPolygon",
        "coordinates": [
          [
            [
              [
                120.213913399375,
                23.029005164647
              ],
              [
                120.213971339821,
                23.029029345249
              ],
              [
                120.213990907622,
                23.028993603751
              ],
              [
                120.21193641582,
                23.028278565101
              ],
              [
                120.208858054826,
                23.028293069236
              ],
              [
                120.204655224576,
                23.028576625144
              ],
              [
                120.194021307228,
                23.02944266499
              ],
              [
                120.193033711374,
                23.029479442418
              ],
              [
                120.190481934941,
                23.028845212781
              ],
              [
                120.177288101241,
                23.025097784625
              ],
              [
                120.176869053844,
                23.025029901951
              ],
              [
                120.174130877065,
                23.023241650285
              ],
              [
                120.174104811078,
                23.02328332522
              ],
              [
                120.176836534912,
                23.025071543774
              ],
              [
                120.177275014169,
                23.025127581698
              ],
              [
                120.178498916036,
                23.025492320311
              ],
              [
                120.190810264165,
                23.028978298724
              ],
              [
                120.193039879575,
                23.029527258336
              ],
              [
                120.194033929424,
                23.029490513753
              ],
              [
                120.196403619698,
                23.029275590775
              ],
              [
                120.203408873784,
                23.028719681761
              ],
              [
                120.204984093504,
                23.028620088976
              ],
              [
                120.208896495695,
                23.028341045121
              ],
              [
                120.211916743425,
                23.028332224259
              ],
              [
                120.213913399375,
                23.029005164647
              ]
            ]
          ]
        ]
      },
      "properties": {
        "source": "nlma-sidewalk",
        "sourceKey": "nlma-sidewalk",
        "sourceVersion": "SIDEWALK_202606",
        "sourceFeatureId": "4476",
        "facilityType": "sidewalk",
        "pedestrianAllowed": true,
        "bicycleAllowed": null,
        "direction": "2",
        "provenance": [
          {
            "dataset": "nlma-sidewalk",
            "record_id": "4476"
          }
        ],
        "officialInventory": true,
        "name": "郡安路河堤",
        "originalCrs": "OGC:CRS84",
        "originalProperties": {
          "NAME": "郡安路河堤",
          "PSTART": "安順橋",
          "PEND": "濱海橋",
          "SW_DIRECT": "2",
          "SW_LENG": 4240.0,
          "SW_WTH": 4.0,
          "SWW_WTH": 2.0,
          "SW_RAMP": 16,
          "COUNTY_NA": "台南市",
          "VILL_NAME": "安南區"
        }
      }
    }
  ],
  "metadata": {
    "originalCrs": "OGC:CRS84"
  }
}
