{
  "type": "FeatureCollection",
  "features": [
    {
      "type": "Feature",
      "id": "11828",
      "geometry": {
        "type": "MultiLineString",
        "coordinates": [
          [
            [
              120.17712600197028,
              22.912349000977624
            ],
            [
              120.17684900415442,
              22.917139999808402
            ],
            [
              120.17519800300981,
              22.921813001014378
            ],
            [
              120.17670300406981,
              22.92823200441663
            ],
            [
              120.17533600188492,
              22.947234003063315
            ],
            [
              120.18324499758904,
              22.95709799830461
            ],
            [
              120.18343000012476,
              22.971070999513508
            ],
            [
              120.18644000429295,
              22.985325996129905
            ],
            [
              120.18622900233068,
              22.994191000981047
            ],
            [
              120.18773400333329,
              23.00210800352058
            ],
            [
              120.1846700045987,
              23.012032003896252
            ],
            [
              120.17336499596544,
              23.02385000456657
            ],
            [
              120.17644899981815,
              23.025794000361376
            ],
            [
              120.18257900467285,
              23.027659003656687
            ],
            [
              120.18793700210405,
              23.02912900035631
            ],
            [
              120.19065799727885,
              23.029825001025046
            ],
            [
              120.19346600359684,
              23.03020400085712
            ],
            [
              120.20464700104434,
              23.029477997374347
            ],
            [
              120.20877900229527,
              23.029134998822872
            ],
            [
              120.21082300045482,
              23.028904003301363
            ],
            [
              120.21260999589285,
              23.029264998695066
            ],
            [
              120.215057996847,
              23.03043500233242
            ],
            [
              120.21642199701954,
              23.031207001925996
            ],
            [
              120.21750699721498,
              23.03274899868188
            ],
            [
              120.2227500039274,
              23.040586000398402
            ],
            [
              120.22649900289733,
              23.04612399879126
            ],
            [
              120.22693500252961,
              23.04614800167461
            ],
            [
              120.2282729961875,
              23.048382996532638
            ],
            [
              120.22981100439769,
              23.050978000997784
            ],
            [
              120.23478299665787,
              23.05539000037575
            ],
            [
              120.24331199984601,
              23.06264600165177
            ],
            [
              120.24789300081777,
              23.07100599764968
            ],
            [
              120.25163200130912,
              23.0742559994844
            ],
            [
              120.25056399650978,
              23.075926004828784
            ],
            [
              120.25649699712415,
              23.08274100095618
            ],
            [
              120.25943499959001,
              23.08278900057657
            ],
            [
              120.26925999589392,
              23.08604399633695
            ],
            [
              120.26745200135358,
              23.09034200423262
            ],
            [
              120.26795600218821,
              23.09388499656944
            ],
            [
              120.27617500147802,
              23.101285997611416
            ],
            [
              120.29922000315338,
              23.107326000281255
            ],
            [
              120.31763100391252,
              23.111628000629306
            ]
          ]
        ]
      },
      "properties": {
        "source": "nlma-bikeway",
        "sourceKey": "nlma-bikeway",
        "sourceVersion": "115年上半年度",
        "sourceFeatureId": "11828",
        "facilityType": "cycleway",
        "pedestrianAllowed": null,
        "bicycleAllowed": true,
        "direction": "unknown",
        "provenance": [
          {
            "dataset": "nlma-bikeway",
            "record_id": "11828"
          }
        ],
        "officialInventory": true,
        "name": "環島一號線",
        "originalCrs": "EPSG:4326",
        "originalProperties": {
          "ROAD_NET": "無",
          "ROAD_ALIAS": "",
          "NAME": "環島一號線",
          "SP_DESC": "台1線/西拉雅大道路口",
          "EP_DESC": "台17線二仁溪橋",
          "CITY": "台南市",
          "TOWN": "新市區、安南區、安屏區",
          "MGR_MCH": "公路總局",
          "B_LENGTH": "33500",
          "FIN_DT": "1041002",
          "ROAD_LIGHT": "有",
          "ROAD_WORK": "是",
          "ROAD_WORK_RESN": ""
        }
      }
    },
    {
      "type": "Feature",
      "id": "28563",
      "geometry": {
        "type": "MultiLineString",
        "coordinates": [
          [
            [
              120.20496099880525,
              23.029307001235086
            ],
            [
              120.20822200087123,
              23.029109998559992
            ],
            [
              120.21095999814185,
              23.028868999533575
            ],
            [
              120.21210600432357,
              23.029031003128086
            ],
            [
              120.21354399750399,
              23.02958399988204
            ],
            [
              120.21599000262654,
              23.03080799756744
            ],
            [
              120.21712699946607,
              23.03197300351833
            ],
            [
              120.21976700255532,
              23.035862997231373
            ],
            [
              120.2246720016955,
              23.04360000431152
            ],
            [
              120.22634500382102,
              23.0459300011337
            ]
          ],
          [
            [
              120.19051099671543,
              23.02981699789094
            ],
            [
              120.19360100104224,
              23.030370002560137
            ],
            [
              120.19703399540597,
              23.030014997929545
            ],
            [
              120.20437300400911,
              23.02938300487408
            ]
          ],
          [
            [
              120.20394299633982,
              23.02871099868507
            ],
            [
              120.20435600391598,
              23.02868399903828
            ],
            [
              120.20468400236437,
              23.028664002827796
            ]
          ]
        ]
      },
      "properties": {
        "source": "nlma-bikeway",
        "sourceKey": "nlma-bikeway",
        "sourceVersion": "115年上半年度",
        "sourceFeatureId": "28563",
        "facilityType": "cycleway",
        "pedestrianAllowed": null,
        "bicycleAllowed": true,
        "direction": "unknown",
        "provenance": [
          {
            "dataset": "nlma-bikeway",
            "record_id": "28563"
          }
        ],
        "officialInventory": true,
        "name": "臺南山海圳綠道郡安路、安通路周邊人行道及自行車道改善工程",
        "originalCrs": "EPSG:4326",
        "originalProperties": {
          "ROAD_NET": "無",
          "ROAD_ALIAS": "",
          "NAME": "臺南山海圳綠道郡安路、安通路周邊人行道及自行車道改善工程",
          "SP_DESC": "鹽水溪排水海東橋",
          "EP_DESC": "鹽水溪排水山海圳綠道橋",
          "CITY": "台南市",
          "TOWN": "安南區",
          "MGR_MCH": "臺南市政府水利局",
          "B_LENGTH": "4686",
          "FIN_DT": "1020501",
          "ROAD_LIGHT": "有",
          "ROAD_WORK": "是",
          "ROAD_WORK_RESN": ""
        }
      }
    }
  ],
  "metadata": {
    "originalCrs": "EPSG:4326"
  }
}
