{
  "type": "FeatureCollection",
  "features": [
    {
      "type": "Feature",
      "id": "1359",
      "geometry": {
        "type": "Polygon",
        "coordinates": [
          [
            [
              120.204671975182,
              23.0284090150281
            ],
            [
              120.20467756439,
              23.0284138688043
            ],
            [
              120.204686096523,
              23.0284171543961
            ],
            [
              120.20469889169,
              23.0284190247254
            ],
            [
              120.204712827399,
              23.0284187281447
            ],
            [
              120.204766987494,
              23.0280259346723
            ],
            [
              120.204756883543,
              23.0280216686444
            ],
            [
              120.204741345498,
              23.0280197041677
            ],
            [
              120.204725296845,
              23.0280222900983
            ],
            [
              120.204671975182,
              23.0284090150281
            ]
          ]
        ]
      },
      "properties": {
        "source": "tainan-sidewalk",
        "sourceKey": "tainan-sidewalk",
        "sourceVersion": "202312",
        "sourceFeatureId": "1359",
        "facilityType": "sidewalk",
        "pedestrianAllowed": true,
        "bicycleAllowed": null,
        "direction": "2",
        "provenance": [
          {
            "dataset": "tainan-sidewalk",
            "record_id": "1359"
          }
        ],
        "officialInventory": true,
        "name": "北安路二段",
        "originalCrs": "assumed:EPSG:4326",
        "originalProperties": {
          "id": null,
          "Name": "北安路二段",
          "descriptio": null,
          "timestamp": null,
          "begin": null,
          "end": null,
          "altitudeMo": null,
          "tessellate": -1,
          "extrude": 0,
          "visibility": -1,
          "drawOrder": null,
          "icon": null,
          "PSTART": "府安路五段",
          "PEND": "郡安路五段",
          "SW_DIRECT": "2",
          "SW_LENG": 43.85,
          "SW_WTH": 1.84,
          "SWW_WTH": 1.84,
          "SW_RAMP": "1",
          "COUNTY_NA": "台南市",
          "VILL_NAME": "安南區"
        }
      }
    },
    {
      "type": "Feature",
      "id": "1360",
      "geometry": {
        "type": "Polygon",
        "coordinates": [
          [
            [
              120.205426492101,
              23.028392774149
            ],
            [
              120.204997746613,
              23.0283470856337
            ],
            [
              120.2049824516,
              23.0283452632704
            ],
            [
              120.204977871047,
              23.0283781946927
            ],
            [
              120.205000025241,
              23.0283960700076
            ],
            [
              120.205012688063,
              23.0284083630877
            ],
            [
              120.205031414123,
              23.0284208762606
            ],
            [
              120.205050767987,
              23.0284254903473
            ],
            [
              120.205080192588,
              23.0284192448606
            ],
            [
              120.205250056324,
              23.028406859985
            ],
            [
              120.205297181962,
              23.0284015846992
            ],
            [
              120.205396124571,
              23.0283951085453
            ],
            [
              120.205426492101,
              23.028392774149
            ]
          ]
        ]
      },
      "properties": {
        "source": "tainan-sidewalk",
        "sourceKey": "tainan-sidewalk",
        "sourceVersion": "202312",
        "sourceFeatureId": "1360",
        "facilityType": "sidewalk",
        "pedestrianAllowed": true,
        "bicycleAllowed": null,
        "direction": "1",
        "provenance": [
          {
            "dataset": "tainan-sidewalk",
            "record_id": "1360"
          }
        ],
        "officialInventory": true,
        "name": "郡安路四段",
        "originalCrs": "assumed:EPSG:4326",
        "originalProperties": {
          "id": null,
          "Name": "郡安路四段",
          "descriptio": null,
          "timestamp": null,
          "begin": null,
          "end": null,
          "altitudeMo": null,
          "tessellate": -1,
          "extrude": 0,
          "visibility": -1,
          "drawOrder": null,
          "icon": null,
          "PSTART": "北安路二段",
          "PEND": "泰安街",
          "SW_DIRECT": "1",
          "SW_LENG": 45.82,
          "SW_WTH": 6.49,
          "SWW_WTH": 6.49,
          "SW_RAMP": "1",
          "COUNTY_NA": "台南市",
          "VILL_NAME": "安南區"
        }
      }
    },
    {
      "type": "Feature",
      "id": "1361",
      "geometry": {
        "type": "Polygon",
        "coordinates": [
          [
            [
              120.204956771474,
              23.028605186588
            ],
            [
              120.204942262463,
              23.028603420544
            ],
            [
              120.204886157415,
              23.0289981683273
            ],
            [
              120.204841554406,
              23.0293304458708
            ],
            [
              120.20485606449,
              23.029332208319
            ],
            [
              120.204956771474,
              23.028605186588
            ]
          ]
        ]
      },
      "properties": {
        "source": "tainan-sidewalk",
        "sourceKey": "tainan-sidewalk",
        "sourceVersion": "202312",
        "sourceFeatureId": "1361",
        "facilityType": "sidewalk",
        "pedestrianAllowed": true,
        "bicycleAllowed": null,
        "direction": "1",
        "provenance": [
          {
            "dataset": "tainan-sidewalk",
            "record_id": "1361"
          }
        ],
        "officialInventory": true,
        "name": "北安路二段",
        "originalCrs": "assumed:EPSG:4326",
        "originalProperties": {
          "id": null,
          "Name": "北安路二段",
          "descriptio": null,
          "timestamp": null,
          "begin": null,
          "end": null,
          "altitudeMo": null,
          "tessellate": -1,
          "extrude": 0,
          "visibility": -1,
          "drawOrder": null,
          "icon": null,
          "PSTART": "郡安路四段",
          "PEND": "安通路四段",
          "SW_DIRECT": "1",
          "SW_LENG": 81.17,
          "SW_WTH": 1.5,
          "SWW_WTH": 1.5,
          "SW_RAMP": "2",
          "COUNTY_NA": "台南市",
          "VILL_NAME": "安南區"
        }
      }
    },
    {
      "type": "Feature",
      "id": "1362",
      "geometry": {
        "type": "Polygon",
        "coordinates": [
          [
            [
              120.204565559497,
              23.0293464993917
            ],
            [
              120.204579870957,
              23.0293496885247
            ],
            [
              120.204681121069,
              23.0286216421103
            ],
            [
              120.204666606965,
              23.0286199130389
            ],
            [
              120.204565559497,
              23.0293464993917
            ]
          ]
        ]
      },
      "properties": {
        "source": "tainan-sidewalk",
        "sourceKey": "tainan-sidewalk",
        "sourceVersion": "202312",
        "sourceFeatureId": "1362",
        "facilityType": "sidewalk",
        "pedestrianAllowed": true,
        "bicycleAllowed": null,
        "direction": "2",
        "provenance": [
          {
            "dataset": "tainan-sidewalk",
            "record_id": "1362"
          }
        ],
        "officialInventory": true,
        "name": "北安路二段",
        "originalCrs": "assumed:EPSG:4326",
        "originalProperties": {
          "id": null,
          "Name": "北安路二段",
          "descriptio": null,
          "timestamp": null,
          "begin": null,
          "end": null,
          "altitudeMo": null,
          "tessellate": -1,
          "extrude": 0,
          "visibility": -1,
          "drawOrder": null,
          "icon": null,
          "PSTART": "郡安路五段",
          "PEND": "安通路五段",
          "SW_DIRECT": "2",
          "SW_LENG": 81.29,
          "SW_WTH": 1.5,
          "SWW_WTH": 1.5,
          "SW_RAMP": "2",
          "COUNTY_NA": "台南市",
          "VILL_NAME": "安南區"
        }
      }
    },
    {
      "type": "Feature",
      "id": "1369",
      "geometry": {
        "type": "Polygon",
        "coordinates": [
          [
            [
              120.204846159306,
              23.0295335359978
            ],
            [
              120.204832974571,
              23.0295257092755
            ],
            [
              120.204832491357,
              23.0295255894559
            ],
            [
              120.204832004156,
              23.0295254840644
            ],
            [
              120.204831513932,
              23.0295253949119
            ],
            [
              120.20483101971,
              23.0295253219935
            ],
            [
              120.204830523448,
              23.029525264416
            ],
            [
              120.204830026114,
              23.0295252230873
            ],
            [
              120.204829526734,
              23.0295251980024
            ],
            [
              120.204829026288,
              23.0295251882634
            ],
            [
              120.204828525746,
              23.029525194778
            ],
            [
              120.204828027066,
              23.0295252166532
            ],
            [
              120.204827528286,
              23.029525255685
            ],
            [
              120.204827031371,
              23.0295253091744
            ],
            [
              120.204826537283,
              23.0295253798352
            ],
            [
              120.204826046032,
              23.0295254658614
            ],
            [
              120.204825557617,
              23.0295255672529
            ],
            [
              120.204825073985,
              23.0295256849227
            ],
            [
              120.204824595147,
              23.0295258170648
            ],
            [
              120.204824121096,
              23.029525964582
            ],
            [
              120.204823652809,
              23.0295261274794
            ],
            [
              120.204823191261,
              23.0295263057618
            ],
            [
              120.204822736464,
              23.0295264976233
            ],
            [
              120.20482228938,
              23.0295267048747
            ],
            [
              120.204821850023,
              23.0295269257101
            ],
            [
              120.204821418385,
              23.0295271610324
            ],
            [
              120.2048209974,
              23.0295274099534
            ],
            [
              120.204820585121,
              23.0295276715603
            ],
            [
              120.204820182519,
              23.029527946761
            ],
            [
              120.204819790574,
              23.0295282346573
            ],
            [
              120.204819410268,
              23.0295285343513
            ],
            [
              120.204819040619,
              23.0295288467409
            ],
            [
              120.204818682614,
              23.0295291700252
            ],
            [
              120.204818338199,
              23.0295295051169
            ],
            [
              120.204818005427,
              23.0295298511033
            ],
            [
              120.204817686256,
              23.029530207091
            ],
            [
              120.20481738068,
              23.0295305739833
            ],
            [
              120.204817088709,
              23.0295309499739
            ],
            [
              120.204816810349,
              23.0295313341601
            ],
            [
              120.204816547541,
              23.0295317283576
            ],
            [
              120.204816299324,
              23.0295321298524
            ],
            [
              120.204816065694,
              23.0295325395476
            ],
            [
              120.204815848613,
              23.0295329556471
            ],
            [
              120.204744569023,
              23.0299826663875
            ],
            [
              120.204716425542,
              23.030220467028
            ],
            [
              120.204665109142,
              23.0305771903911
            ],
            [
              120.204654599456,
              23.030663984492
            ],
            [
              120.204632408133,
              23.0308472416391
            ],
            [
              120.20457768395,
              23.0312492346256
            ],
            [
              120.204566849483,
              23.0312899392886
            ],
            [
              120.204536332682,
              23.0315255570792
            ],
            [
              120.204527860251,
              23.0315734073861
            ],
            [
              120.204502770137,
              23.0317534649991
            ],
            [
              120.204485467717,
              23.0318829778909
            ],
            [
              120.204463759795,
              23.0320064040165
            ],
            [
              120.204440695638,
              23.0321951560325
            ],
            [
              120.204444064533,
              23.0322068001188
            ],
            [
              120.2044497742,
              23.0322214079123
            ],
            [
              120.204458626892,
              23.0322384362229
            ],
            [
              120.204464721136,
              23.0322465334473
            ],
            [
              120.204470268147,
              23.0322516199962
            ],
            [
              120.204476823423,
              23.0322541434564
            ],
            [
              120.20449408228,
              23.0322558998992
            ],
            [
              120.204495985181,
              23.0322398801507
            ],
            [
              120.204466620666,
              23.0322031642426
            ],
            [
              120.204466147866,
              23.0321957833771
            ],
            [
              120.204488896342,
              23.0320096114727
            ],
            [
              120.204510583043,
              23.0318863062397
            ],
            [
              120.204527936489,
              23.0317564071133
            ],
            [
              120.204552963385,
              23.0315768088095
            ],
            [
              120.204561453002,
              23.0315288547414
            ],
            [
              120.204591851167,
              23.0312941601272
            ],
            [
              120.204602666682,
              23.0312535248987
            ],
            [
              120.20465759677,
              23.0308500158815
            ],
            [
              120.204680108964,
              23.0306641127194
            ],
            [
              120.204690288463,
              23.0305800476573
            ],
            [
              120.204741608869,
              23.0302232954085
            ],
            [
              120.20476973384,
              23.0299856490841
            ],
            [
              120.204840579716,
              23.0295386758821
            ],
            [
              120.204846159306,
              23.0295335359978
            ]
          ]
        ]
      },
      "properties": {
        "source": "tainan-sidewalk",
        "sourceKey": "tainan-sidewalk",
        "sourceVersion": "202312",
        "sourceFeatureId": "1369",
        "facilityType": "sidewalk",
        "pedestrianAllowed": true,
        "bicycleAllowed": null,
        "direction": "1",
        "provenance": [
          {
            "dataset": "tainan-sidewalk",
            "record_id": "1369"
          }
        ],
        "officialInventory": true,
        "name": "北安路二段",
        "originalCrs": "assumed:EPSG:4326",
        "originalProperties": {
          "id": null,
          "Name": "北安路二段",
          "descriptio": null,
          "timestamp": null,
          "begin": null,
          "end": null,
          "altitudeMo": null,
          "tessellate": -1,
          "extrude": 0,
          "visibility": -1,
          "drawOrder": null,
          "icon": null,
          "PSTART": "安通路四段",
          "PEND": "慈安路",
          "SW_DIRECT": "1",
          "SW_LENG": 306.19,
          "SW_WTH": 2.6,
          "SWW_WTH": 2.6,
          "SW_RAMP": "2",
          "COUNTY_NA": "台南市",
          "VILL_NAME": "安南區"
        }
      }
    },
    {
      "type": "Feature",
      "id": "1372",
      "geometry": {
        "type": "Polygon",
        "coordinates": [
          [
            [
              120.204463553547,
              23.0303206308714
            ],
            [
              120.204525631719,
              23.0298661513034
            ],
            [
              120.204530373084,
              23.0298668596213
            ],
            [
              120.204548891904,
              23.0297572731898
            ],
            [
              120.204572637494,
              23.0295706592281
            ],
            [
              120.204553552013,
              23.0295450586824
            ],
            [
              120.204526497321,
              23.0295111790118
            ],
            [
              120.204526316079,
              23.0295108078667
            ],
            [
              120.204503490226,
              23.0295204149119
            ],
            [
              120.204504764806,
              23.029523007539
            ],
            [
              120.204533146363,
              23.0295585500032
            ],
            [
              120.204546630885,
              23.0295766364453
            ],
            [
              120.204524047162,
              23.0297541213994
            ],
            [
              120.20450949453,
              23.0298402296552
            ],
            [
              120.204503996736,
              23.0298394073665
            ],
            [
              120.204503730962,
              23.02984147031
            ],
            [
              120.204438647432,
              23.0303179447097
            ],
            [
              120.204436404326,
              23.0303374095382
            ],
            [
              120.204428162956,
              23.030431340676
            ],
            [
              120.204397785348,
              23.0306626924445
            ],
            [
              120.20438564208,
              23.0307551663641
            ],
            [
              120.204352719175,
              23.0309779845163
            ],
            [
              120.204335736682,
              23.0311395847385
            ],
            [
              120.204314035625,
              23.0312856077934
            ],
            [
              120.204299626942,
              23.0314089622509
            ],
            [
              120.204289966118,
              23.0314730941454
            ],
            [
              120.204248910034,
              23.031725448509
            ],
            [
              120.204234085757,
              23.0318211922576
            ],
            [
              120.204173675425,
              23.0321793704092
            ],
            [
              120.20411012277,
              23.032648920686
            ],
            [
              120.204082292136,
              23.0327965924323
            ],
            [
              120.204075894866,
              23.0328824562782
            ],
            [
              120.204042173441,
              23.0331240907806
            ],
            [
              120.204041040464,
              23.0331319376471
            ],
            [
              120.204027537868,
              23.0331989452251
            ],
            [
              120.204024752184,
              23.0332213980744
            ],
            [
              120.204001704066,
              23.0333697295711
            ],
            [
              120.204002617264,
              23.0333697341657
            ],
            [
              120.203973754549,
              23.0336023720194
            ],
            [
              120.20396797103,
              23.0336495034655
            ],
            [
              120.203961182056,
              23.033685427123
            ],
            [
              120.203951920243,
              23.0337211017489
            ],
            [
              120.203948026636,
              23.0337345062885
            ],
            [
              120.203887864905,
              23.0338932812259
            ],
            [
              120.203760414597,
              23.0342400724972
            ],
            [
              120.203553093764,
              23.0347872455622
            ],
            [
              120.203468405806,
              23.0350155079583
            ],
            [
              120.203320165659,
              23.0354249893219
            ],
            [
              120.203328345479,
              23.035426699275
            ],
            [
              120.203334647367,
              23.0354272041872
            ],
            [
              120.203341468011,
              23.0354267653585
            ],
            [
              120.203345622719,
              23.0354257261487
            ],
            [
              120.203491506283,
              23.0350227598418
            ],
            [
              120.203576138691,
              23.0347946470526
            ],
            [
              120.203783471342,
              23.0342474415071
            ],
            [
              120.203910921589,
              23.033900652022
            ],
            [
              120.203971043677,
              23.0337419780131
            ],
            [
              120.203975547262,
              23.0337267145375
            ],
            [
              120.203985074626,
              23.033690013622
            ],
            [
              120.20399212528,
              23.0336527259305
            ],
            [
              120.203997988773,
              23.0336049338831
            ],
            [
              120.204027152615,
              23.0333698576088
            ],
            [
              120.204049620038,
              23.0332243748887
            ],
            [
              120.204052350223,
              23.0332024003545
            ],
            [
              120.204065806687,
              23.0331356038462
            ],
            [
              120.204067033198,
              23.0331271145076
            ],
            [
              120.20410085842,
              23.0328847436657
            ],
            [
              120.204105577974,
              23.0328213996491
            ],
            [
              120.204134998752,
              23.0326518252849
            ],
            [
              120.20419536508,
              23.0322058257026
            ],
            [
              120.204258937147,
              23.0318242718941
            ],
            [
              120.204277065261,
              23.0317072084567
            ],
            [
              120.204311207272,
              23.0315001485717
            ],
            [
              120.204324514727,
              23.0314118126941
            ],
            [
              120.204338925466,
              23.031288436572
            ],
            [
              120.204363326416,
              23.0311242477067
            ],
            [
              120.204373695284,
              23.0310072987369
            ],
            [
              120.204410509514,
              23.0307581394983
            ],
            [
              120.204423026549,
              23.0306628211702
            ],
            [
              120.204453114043,
              23.0304336821163
            ],
            [
              120.204461370062,
              23.0303395794787
            ],
            [
              120.204463553547,
              23.0303206308714
            ]
          ]
        ]
      },
      "properties": {
        "source": "tainan-sidewalk",
        "sourceKey": "tainan-sidewalk",
        "sourceVersion": "202312",
        "sourceFeatureId": "1372",
        "facilityType": "sidewalk",
        "pedestrianAllowed": true,
        "bicycleAllowed": null,
        "direction": "2",
        "provenance": [
          {
            "dataset": "tainan-sidewalk",
            "record_id": "1372"
          }
        ],
        "officialInventory": true,
        "name": "北安路二段",
        "originalCrs": "assumed:EPSG:4326",
        "originalProperties": {
          "id": null,
          "Name": "北安路二段",
          "descriptio": null,
          "timestamp": null,
          "begin": null,
          "end": null,
          "altitudeMo": null,
          "tessellate": -1,
          "extrude": 0,
          "visibility": -1,
          "drawOrder": null,
          "icon": null,
          "PSTART": "安通路五段",
          "PEND": "安中路一段",
          "SW_DIRECT": "2",
          "SW_LENG": 671.17,
          "SW_WTH": 2.57,
          "SWW_WTH": 2.57,
          "SW_RAMP": "3",
          "COUNTY_NA": "台南市",
          "VILL_NAME": "安南區"
        }
      }
    },
    {
      "type": "Feature",
      "id": "1484",
      "geometry": {
        "type": "MultiPolygon",
        "coordinates": [
          [
            [
              [
                120.205475286455,
                23.0228731749317
              ],
              [
                120.205461783876,
                23.0228712433315
              ],
              [
                120.205224520078,
                23.0245791669019
              ],
              [
                120.205238067621,
                23.0245807790859
              ],
              [
                120.205475286455,
                23.0228731749317
              ]
            ]
          ],
          [
            [
              [
                120.205627486239,
                23.0217058713925
              ],
              [
                120.205618394615,
                23.0217037343883
              ],
              [
                120.205501133472,
                23.022536900797
              ],
              [
                120.205500620803,
                23.0225411459845
              ],
              [
                120.205513716729,
                23.0225412117257
              ],
              [
                120.205517226284,
                23.0225383198438
              ],
              [
                120.20551985522,
                23.0225358696283
              ],
              [
                120.205627142629,
                23.0217645256212
              ],
              [
                120.20563256719,
                23.0217175096098
              ],
              [
                120.205631650226,
                23.0217091684141
              ],
              [
                120.205627486239,
                23.0217058713925
              ]
            ]
          ]
        ]
      },
      "properties": {
        "source": "tainan-sidewalk",
        "sourceKey": "tainan-sidewalk",
        "sourceVersion": "202312",
        "sourceFeatureId": "1484",
        "facilityType": "sidewalk",
        "pedestrianAllowed": true,
        "bicycleAllowed": null,
        "direction": "2",
        "provenance": [
          {
            "dataset": "tainan-sidewalk",
            "record_id": "1484"
          }
        ],
        "officialInventory": true,
        "name": "北安路二段",
        "originalCrs": "assumed:EPSG:4326",
        "originalProperties": {
          "id": null,
          "Name": "北安路二段",
          "descriptio": null,
          "timestamp": null,
          "begin": null,
          "end": null,
          "altitudeMo": null,
          "tessellate": -1,
          "extrude": 0,
          "visibility": -1,
          "drawOrder": null,
          "icon": null,
          "PSTART": "中華北路二段",
          "PEND": "府安路五段",
          "SW_DIRECT": "2",
          "SW_LENG": 284.18,
          "SW_WTH": 1.4,
          "SWW_WTH": 1.4,
          "SW_RAMP": "0",
          "COUNTY_NA": "台南市",
          "VILL_NAME": "安南區"
        }
      }
    },
    {
      "type": "Feature",
      "id": "1485",
      "geometry": {
        "type": "MultiPolygon",
        "coordinates": [
          [
            [
              [
                120.205749352316,
                23.02291236684
              ],
              [
                120.205735853631,
                23.0229104352827
              ],
              [
                120.205735070907,
                23.0229154827949
              ],
              [
                120.205707812572,
                23.0231163795914
              ],
              [
                120.205683068732,
                23.0232807243002
              ],
              [
                120.205567726333,
                23.0241282020805
              ],
              [
                120.205537088253,
                23.0243300480611
              ],
              [
                120.205509771082,
                23.024543871974
              ],
              [
                120.205500913012,
                23.0246120607613
              ],
              [
                120.205514460551,
                23.0246136747277
              ],
              [
                120.20552333296,
                23.0245453686202
              ],
              [
                120.205550633772,
                23.0243316692378
              ],
              [
                120.205581265692,
                23.0241298719858
              ],
              [
                120.205696610003,
                23.0232823869794
              ],
              [
                120.205721351897,
                23.0231180386464
              ],
              [
                120.205748608102,
                23.0229171689267
              ],
              [
                120.205749352316,
                23.02291236684
              ]
            ]
          ],
          [
            [
              [
                120.205906153847,
                23.0217565127744
              ],
              [
                120.205885953369,
                23.0217558533602
              ],
              [
                120.205772141677,
                23.0225593499365
              ],
              [
                120.205772097967,
                23.0225674786174
              ],
              [
                120.205772065523,
                23.0225730175209
              ],
              [
                120.205772871828,
                23.0225762687929
              ],
              [
                120.205776368473,
                23.0225785781806
              ],
              [
                120.205782450927,
                23.0225801365977
              ],
              [
                120.205787508504,
                23.0225804491351
              ],
              [
                120.205791684674,
                23.0225556878723
              ],
              [
                120.205906153847,
                23.0217565127744
              ]
            ]
          ]
        ]
      },
      "properties": {
        "source": "tainan-sidewalk",
        "sourceKey": "tainan-sidewalk",
        "sourceVersion": "202312",
        "sourceFeatureId": "1485",
        "facilityType": "sidewalk",
        "pedestrianAllowed": true,
        "bicycleAllowed": null,
        "direction": "1",
        "provenance": [
          {
            "dataset": "tainan-sidewalk",
            "record_id": "1485"
          }
        ],
        "officialInventory": true,
        "name": "北安路二段",
        "originalCrs": "assumed:EPSG:4326",
        "originalProperties": {
          "id": null,
          "Name": "北安路二段",
          "descriptio": null,
          "timestamp": null,
          "begin": null,
          "end": null,
          "altitudeMo": null,
          "tessellate": -1,
          "extrude": 0,
          "visibility": -1,
          "drawOrder": null,
          "icon": null,
          "PSTART": "中華北路二段",
          "PEND": "府安路四段",
          "SW_DIRECT": "1",
          "SW_LENG": 282.0,
          "SW_WTH": 1.4,
          "SWW_WTH": 1.4,
          "SW_RAMP": "0",
          "COUNTY_NA": "台南市",
          "VILL_NAME": "安南區"
        }
      }
    },
    {
      "type": "Feature",
      "id": "1486",
      "geometry": {
        "type": "Polygon",
        "coordinates": [
          [
            [
              120.205060790362,
              23.0245580268211
            ],
            [
              120.205010376169,
              23.0249024146123
            ],
            [
              120.205001584294,
              23.0250145044334
            ],
            [
              120.205000334986,
              23.0250224148468
            ],
            [
              120.205016746315,
              23.0250246347147
            ],
            [
              120.205018081782,
              23.0250161729948
            ],
            [
              120.205026879974,
              23.0249040019333
            ],
            [
              120.205074155773,
              23.0245810511838
            ],
            [
              120.205060790362,
              23.0245580268211
            ]
          ]
        ]
      },
      "properties": {
        "source": "tainan-sidewalk",
        "sourceKey": "tainan-sidewalk",
        "sourceVersion": "202312",
        "sourceFeatureId": "1486",
        "facilityType": "sidewalk",
        "pedestrianAllowed": true,
        "bicycleAllowed": null,
        "direction": "1",
        "provenance": [
          {
            "dataset": "tainan-sidewalk",
            "record_id": "1486"
          }
        ],
        "officialInventory": true,
        "name": "北安路二段",
        "originalCrs": "assumed:EPSG:4326",
        "originalProperties": {
          "id": null,
          "Name": "北安路二段",
          "descriptio": null,
          "timestamp": null,
          "begin": null,
          "end": null,
          "altitudeMo": null,
          "tessellate": -1,
          "extrude": 0,
          "visibility": -1,
          "drawOrder": null,
          "icon": null,
          "PSTART": "府安路五段",
          "PEND": "郡安路五段",
          "SW_DIRECT": "1",
          "SW_LENG": 50.48,
          "SW_WTH": 1.7,
          "SWW_WTH": 1.7,
          "SW_RAMP": "0",
          "COUNTY_NA": "台南市",
          "VILL_NAME": "安南區"
        }
      }
    },
    {
      "type": "Feature",
      "id": "1487",
      "geometry": {
        "type": "Polygon",
        "coordinates": [
          [
            [
              120.205750647082,
              23.0246407297113
            ],
            [
              120.206471089495,
              23.0246948392569
            ],
            [
              120.206473054923,
              23.0246809084383
            ],
            [
              120.206470976774,
              23.0246762601568
            ],
            [
              120.206466296937,
              23.0246727357198
            ],
            [
              120.205757562597,
              23.0246195057514
            ],
            [
              120.205752455883,
              23.02462423718
            ],
            [
              120.205750702292,
              23.0246313052704
            ],
            [
              120.205750664649,
              23.0246377309024
            ],
            [
              120.205750647082,
              23.0246407297113
            ]
          ]
        ]
      },
      "properties": {
        "source": "tainan-sidewalk",
        "sourceKey": "tainan-sidewalk",
        "sourceVersion": "202312",
        "sourceFeatureId": "1487",
        "facilityType": "sidewalk",
        "pedestrianAllowed": true,
        "bicycleAllowed": null,
        "direction": "2",
        "provenance": [
          {
            "dataset": "tainan-sidewalk",
            "record_id": "1487"
          }
        ],
        "officialInventory": true,
        "name": "府安路四段",
        "originalCrs": "assumed:EPSG:4326",
        "originalProperties": {
          "id": null,
          "Name": "府安路四段",
          "descriptio": null,
          "timestamp": null,
          "begin": null,
          "end": null,
          "altitudeMo": null,
          "tessellate": -1,
          "extrude": 0,
          "visibility": -1,
          "drawOrder": null,
          "icon": null,
          "PSTART": "北安路二段",
          "PEND": "安和路一段",
          "SW_DIRECT": "2",
          "SW_LENG": 74.12,
          "SW_WTH": 2.4,
          "SWW_WTH": 2.4,
          "SW_RAMP": "2",
          "COUNTY_NA": "台南市",
          "VILL_NAME": "安南區"
        }
      }
    },
    {
      "type": "Feature",
      "id": "1488",
      "geometry": {
        "type": "Polygon",
        "coordinates": [
          [
            [
              120.204960652842,
              23.0266380263534
            ],
            [
              120.205032364793,
              23.0261180921656
            ],
            [
              120.205024826245,
              23.0261137613856
            ],
            [
              120.205018401892,
              23.0261115862692
            ],
            [
              120.205013601911,
              23.0261100812193
            ],
            [
              120.205001041763,
              23.0261085976858
            ],
            [
              120.20499114956,
              23.0261110023703
            ],
            [
              120.204919135866,
              23.0266331203042
            ],
            [
              120.204920506401,
              23.0266401426742
            ],
            [
              120.204927496741,
              23.0266437970598
            ],
            [
              120.204940210385,
              23.026645067358
            ],
            [
              120.204951956917,
              23.0266442215592
            ],
            [
              120.204957021269,
              23.0266427389768
            ],
            [
              120.204960652842,
              23.0266380263534
            ]
          ]
        ]
      },
      "properties": {
        "source": "tainan-sidewalk",
        "sourceKey": "tainan-sidewalk",
        "sourceVersion": "202312",
        "sourceFeatureId": "1488",
        "facilityType": "sidewalk",
        "pedestrianAllowed": true,
        "bicycleAllowed": null,
        "direction": "2",
        "provenance": [
          {
            "dataset": "tainan-sidewalk",
            "record_id": "1488"
          }
        ],
        "officialInventory": true,
        "name": "北安路二段",
        "originalCrs": "assumed:EPSG:4326",
        "originalProperties": {
          "id": null,
          "Name": "北安路二段",
          "descriptio": null,
          "timestamp": null,
          "begin": null,
          "end": null,
          "altitudeMo": null,
          "tessellate": -1,
          "extrude": 0,
          "visibility": -1,
          "drawOrder": null,
          "icon": null,
          "PSTART": "府安路五段",
          "PEND": "郡安路五段",
          "SW_DIRECT": "2",
          "SW_LENG": 59.84,
          "SW_WTH": 4.4,
          "SWW_WTH": 3.0,
          "SW_RAMP": "1",
          "COUNTY_NA": "台南市",
          "VILL_NAME": "安南區"
        }
      }
    },
    {
      "type": "Feature",
      "id": "1489",
      "geometry": {
        "type": "Polygon",
        "coordinates": [
          [
            [
              120.205167777221,
              23.0271213319171
            ],
            [
              120.205218238258,
              23.0267627346512
            ],
            [
              120.205200825023,
              23.026760635286
            ],
            [
              120.205150350728,
              23.0271193227797
            ],
            [
              120.205167777221,
              23.0271213319171
            ]
          ]
        ]
      },
      "properties": {
        "source": "tainan-sidewalk",
        "sourceKey": "tainan-sidewalk",
        "sourceVersion": "202312",
        "sourceFeatureId": "1489",
        "facilityType": "sidewalk",
        "pedestrianAllowed": true,
        "bicycleAllowed": null,
        "direction": "1",
        "provenance": [
          {
            "dataset": "tainan-sidewalk",
            "record_id": "1489"
          }
        ],
        "officialInventory": true,
        "name": "北安路二段",
        "originalCrs": "assumed:EPSG:4326",
        "originalProperties": {
          "id": null,
          "Name": "北安路二段",
          "descriptio": null,
          "timestamp": null,
          "begin": null,
          "end": null,
          "altitudeMo": null,
          "tessellate": -1,
          "extrude": 0,
          "visibility": -1,
          "drawOrder": null,
          "icon": null,
          "PSTART": "聖安街",
          "PEND": "郡安路四段",
          "SW_DIRECT": "1",
          "SW_LENG": 40.05,
          "SW_WTH": 1.9,
          "SWW_WTH": 1.9,
          "SW_RAMP": "2",
          "COUNTY_NA": "台南市",
          "VILL_NAME": "安南區"
        }
      }
    },
    {
      "type": "Feature",
      "id": "1490",
      "geometry": {
        "type": "Polygon",
        "coordinates": [
          [
            [
              120.204868288314,
              23.0272943529444
            ],
            [
              120.204941497062,
              23.0267435768505
            ],
            [
              120.204922796608,
              23.0267348889484
            ],
            [
              120.20490068124,
              23.0267333962258
            ],
            [
              120.204825985256,
              23.0272953549219
            ],
            [
              120.20483769192,
              23.0273021474925
            ],
            [
              120.204848253709,
              23.0273022005653
            ],
            [
              120.204864852577,
              23.027301934508
            ],
            [
              120.204868288314,
              23.0272943529444
            ]
          ]
        ]
      },
      "properties": {
        "source": "tainan-sidewalk",
        "sourceKey": "tainan-sidewalk",
        "sourceVersion": "202312",
        "sourceFeatureId": "1490",
        "facilityType": "sidewalk",
        "pedestrianAllowed": true,
        "bicycleAllowed": null,
        "direction": "2",
        "provenance": [
          {
            "dataset": "tainan-sidewalk",
            "record_id": "1490"
          }
        ],
        "officialInventory": true,
        "name": "北安路二段",
        "originalCrs": "assumed:EPSG:4326",
        "originalProperties": {
          "id": null,
          "Name": "北安路二段",
          "descriptio": null,
          "timestamp": null,
          "begin": null,
          "end": null,
          "altitudeMo": null,
          "tessellate": -1,
          "extrude": 0,
          "visibility": -1,
          "drawOrder": null,
          "icon": null,
          "PSTART": "府安路五段",
          "PEND": "郡安路五段",
          "SW_DIRECT": "2",
          "SW_LENG": 63.42,
          "SW_WTH": 4.4,
          "SWW_WTH": 3.0,
          "SW_RAMP": "1",
          "COUNTY_NA": "台南市",
          "VILL_NAME": "安南區"
        }
      }
    },
    {
      "type": "Feature",
      "id": "1491",
      "geometry": {
        "type": "Polygon",
        "coordinates": [
          [
            [
              120.204854314805,
              23.0273887700634
            ],
            [
              120.204844210898,
              23.027384504042
            ],
            [
              120.204828672918,
              23.0273825404787
            ],
            [
              120.204812624348,
              23.0273851255175
            ],
            [
              120.204734660431,
              23.0279505325344
            ],
            [
              120.204740249624,
              23.0279553863083
            ],
            [
              120.20474878076,
              23.0279586709881
            ],
            [
              120.204754532583,
              23.027959917152
            ],
            [
              120.204769121856,
              23.0279607950535
            ],
            [
              120.204775512522,
              23.0279602447287
            ],
            [
              120.204776159489,
              23.0279555667777
            ],
            [
              120.204854314805,
              23.0273887700634
            ]
          ]
        ]
      },
      "properties": {
        "source": "tainan-sidewalk",
        "sourceKey": "tainan-sidewalk",
        "sourceVersion": "202312",
        "sourceFeatureId": "1491",
        "facilityType": "sidewalk",
        "pedestrianAllowed": true,
        "bicycleAllowed": null,
        "direction": "2",
        "provenance": [
          {
            "dataset": "tainan-sidewalk",
            "record_id": "1491"
          }
        ],
        "officialInventory": true,
        "name": "北安路二段",
        "originalCrs": "assumed:EPSG:4326",
        "originalProperties": {
          "id": null,
          "Name": "北安路二段",
          "descriptio": null,
          "timestamp": null,
          "begin": null,
          "end": null,
          "altitudeMo": null,
          "tessellate": -1,
          "extrude": 0,
          "visibility": -1,
          "drawOrder": null,
          "icon": null,
          "PSTART": "府安路五段",
          "PEND": "郡安路五段",
          "SW_DIRECT": "2",
          "SW_LENG": 64.42,
          "SW_WTH": 4.4,
          "SWW_WTH": 3.0,
          "SW_RAMP": "1",
          "COUNTY_NA": "台南市",
          "VILL_NAME": "安南區"
        }
      }
    },
    {
      "type": "Feature",
      "id": "1492",
      "geometry": {
        "type": "Polygon",
        "coordinates": [
          [
            [
              120.205053268767,
              23.027956960053
            ],
            [
              120.205153567054,
              23.0272358506866
            ],
            [
              120.205133818253,
              23.0272505337585
            ],
            [
              120.205035573342,
              23.0279568711545
            ],
            [
              120.2049824516,
              23.0283452632704
            ],
            [
              120.204997746608,
              23.0283470865366
            ],
            [
              120.205053268767,
              23.027956960053
            ]
          ]
        ]
      },
      "properties": {
        "source": "tainan-sidewalk",
        "sourceKey": "tainan-sidewalk",
        "sourceVersion": "202312",
        "sourceFeatureId": "1492",
        "facilityType": "sidewalk",
        "pedestrianAllowed": true,
        "bicycleAllowed": null,
        "direction": "1",
        "provenance": [
          {
            "dataset": "tainan-sidewalk",
            "record_id": "1492"
          }
        ],
        "officialInventory": true,
        "name": "北安路二段",
        "originalCrs": "assumed:EPSG:4326",
        "originalProperties": {
          "id": null,
          "Name": "北安路二段",
          "descriptio": null,
          "timestamp": null,
          "begin": null,
          "end": null,
          "altitudeMo": null,
          "tessellate": -1,
          "extrude": 0,
          "visibility": -1,
          "drawOrder": null,
          "icon": null,
          "PSTART": "聖安街",
          "PEND": "郡安路四段",
          "SW_DIRECT": "1",
          "SW_LENG": 123.4,
          "SW_WTH": 1.9,
          "SWW_WTH": 1.9,
          "SW_RAMP": "9",
          "COUNTY_NA": "台南市",
          "VILL_NAME": "安南區"
        }
      }
    },
    {
      "type": "Feature",
      "id": "1656",
      "geometry": {
        "type": "MultiPolygon",
        "coordinates": [
          [
            [
              [
                120.198405184009,
                23.0271427781582
              ],
              [
                120.1980202563,
                23.027067945947
              ],
              [
                120.198017123061,
                23.0270698480581
              ],
              [
                120.197981012395,
                23.0270917833394
              ],
              [
                120.197972573116,
                23.0271267700827
              ],
              [
                120.198011521091,
                23.0271348164329
              ],
              [
                120.198049854412,
                23.0271115306718
              ],
              [
                120.198396628585,
                23.0271789454736
              ],
              [
                120.198519242082,
                23.0272048020343
              ],
              [
                120.198772218583,
                23.0272527199365
              ],
              [
                120.198779511402,
                23.0272162319589
              ],
              [
                120.198776417774,
                23.0272157250581
              ],
              [
                120.198527696142,
                23.0271686125261
              ],
              [
                120.198405184009,
                23.0271427781582
              ]
            ]
          ],
          [
            [
              [
                120.199187250671,
                23.027263874407
              ],
              [
                120.199186394121,
                23.0272638664602
              ],
              [
                120.199185539341,
                23.0272638892247
              ],
              [
                120.199184684412,
                23.0272639372726
              ],
              [
                120.199183835177,
                23.0272640124396
              ],
              [
                120.199182985771,
                23.0272641165021
              ],
              [
                120.199182142058,
                23.0272642476836
              ],
              [
                120.199181304039,
                23.0272644059842
              ],
              [
                120.199180471724,
                23.0272645895979
              ],
              [
                120.199179647043,
                23.0272648021466
              ],
              [
                120.19917883392,
                23.027265040038
              ],
              [
                120.199178026501,
                23.0272653032425
              ],
              [
                120.19917723063,
                23.0272655935956
              ],
              [
                120.199176444364,
                23.0272659092817
              ],
              [
                120.19917567357,
                23.0272662485242
              ],
              [
                120.199174914322,
                23.0272666149155
              ],
              [
                120.199174168605,
                23.0272670030475
              ],
              [
                120.1991734403,
                23.0272674165518
              ],
              [
                120.199172725513,
                23.0272678536028
              ],
              [
                120.19917202816,
                23.0272683124142
              ],
              [
                120.19917135019,
                23.0272687929959
              ],
              [
                120.199170689653,
                23.0272692953381
              ],
              [
                120.1991700485,
                23.0272698194505
              ],
              [
                120.199169426741,
                23.0272703635273
              ],
              [
                120.199168826328,
                23.0272709275783
              ],
              [
                120.199168249223,
                23.0272715098075
              ],
              [
                120.199167691512,
                23.027272112001
              ],
              [
                120.199167157119,
                23.0272727305667
              ],
              [
                120.199166646045,
                23.0272733655045
              ],
              [
                120.199166162191,
                23.0272740168343
              ],
              [
                120.199165699704,
                23.0272746845263
              ],
              [
                120.199165264459,
                23.0272753649984
              ],
              [
                120.199164854494,
                23.0272760600465
              ],
              [
                120.199164471771,
                23.0272767678746
              ],
              [
                120.199164114339,
                23.0272774884728
              ],
              [
                120.19916378417,
                23.0272782182392
              ],
              [
                120.199163483205,
                23.0272789589894
              ],
              [
                120.199163209503,
                23.0272797089076
              ],
              [
                120.199162965026,
                23.0272804661979
              ],
              [
                120.199162747812,
                23.0272812326562
              ],
              [
                120.199162561786,
                23.0272820046904
              ],
              [
                120.199162403033,
                23.0272827840867
              ],
              [
                120.199162271586,
                23.0272835654272
              ],
              [
                120.199162173278,
                23.0272843523534
              ],
              [
                120.199162104226,
                23.0272851412338
              ],
              [
                120.199162062481,
                23.0272859320583
              ],
              [
                120.199287601691,
                23.0273103760813
              ],
              [
                120.199952216294,
                23.0274401607675
              ],
              [
                120.200248415366,
                23.027497099192
              ],
              [
                120.200278130365,
                23.0275028173243
              ],
              [
                120.20027742032,
                23.0274925284623
              ],
              [
                120.200275998489,
                23.0274831606844
              ],
              [
                120.200267665636,
                23.027473080722
              ],
              [
                120.199952372513,
                23.0274136907503
              ],
              [
                120.199259891401,
                23.0272777835267
              ],
              [
                120.199243428322,
                23.0272745523292
              ],
              [
                120.199193158156,
                23.0272646845027
              ],
              [
                120.199192328082,
                23.0272644888641
              ],
              [
                120.199191493956,
                23.0272643184892
              ],
              [
                120.199190653816,
                23.0272641751741
              ],
              [
                120.199189807673,
                23.0272640571129
              ],
              [
                120.199188955495,
                23.0272639697235
              ],
              [
                120.199188103168,
                23.0272639076175
              ],
              [
                120.199187250671,
                23.027263874407
              ]
            ]
          ]
        ]
      },
      "properties": {
        "source": "tainan-sidewalk",
        "sourceKey": "tainan-sidewalk",
        "sourceVersion": "202312",
        "sourceFeatureId": "1656",
        "facilityType": "sidewalk",
        "pedestrianAllowed": true,
        "bicycleAllowed": null,
        "direction": "1",
        "provenance": [
          {
            "dataset": "tainan-sidewalk",
            "record_id": "1656"
          }
        ],
        "officialInventory": true,
        "name": "安富街",
        "originalCrs": "assumed:EPSG:4326",
        "originalProperties": {
          "id": null,
          "Name": "安富街",
          "descriptio": null,
          "timestamp": null,
          "begin": null,
          "end": null,
          "altitudeMo": null,
          "tessellate": -1,
          "extrude": 0,
          "visibility": -1,
          "drawOrder": null,
          "icon": null,
          "PSTART": "安寧街",
          "PEND": "無路名",
          "SW_DIRECT": "1",
          "SW_LENG": 200.49,
          "SW_WTH": 3.56,
          "SWW_WTH": 3.56,
          "SW_RAMP": "3",
          "COUNTY_NA": "台南市",
          "VILL_NAME": "安南區"
        }
      }
    },
    {
      "type": "Feature",
      "id": "1657",
      "geometry": {
        "type": "Polygon",
        "coordinates": [
          [
            [
              120.199142393661,
              23.0271624489859
            ],
            [
              120.199074130079,
              23.0271484662494
            ],
            [
              120.199093239964,
              23.0271759783227
            ],
            [
              120.199094966915,
              23.0271779429807
            ],
            [
              120.199098472107,
              23.0271804566381
            ],
            [
              120.199952766764,
              23.0273468881341
            ],
            [
              120.200225536009,
              23.0274000274717
            ],
            [
              120.200786643876,
              23.027509338032
            ],
            [
              120.200791999833,
              23.0274815740729
            ],
            [
              120.199952924698,
              23.0273201273563
            ],
            [
              120.199280971107,
              23.027190832906
            ],
            [
              120.199142393661,
              23.0271624489859
            ]
          ]
        ]
      },
      "properties": {
        "source": "tainan-sidewalk",
        "sourceKey": "tainan-sidewalk",
        "sourceVersion": "202312",
        "sourceFeatureId": "1657",
        "facilityType": "sidewalk",
        "pedestrianAllowed": true,
        "bicycleAllowed": null,
        "direction": "2",
        "provenance": [
          {
            "dataset": "tainan-sidewalk",
            "record_id": "1657"
          }
        ],
        "officialInventory": true,
        "name": "安富街",
        "originalCrs": "assumed:EPSG:4326",
        "originalProperties": {
          "id": null,
          "Name": "安富街",
          "descriptio": null,
          "timestamp": null,
          "begin": null,
          "end": null,
          "altitudeMo": null,
          "tessellate": -1,
          "extrude": 0,
          "visibility": -1,
          "drawOrder": null,
          "icon": null,
          "PSTART": "安寧街",
          "PEND": "無路名",
          "SW_DIRECT": "2",
          "SW_LENG": 179.91,
          "SW_WTH": 3.56,
          "SWW_WTH": 3.56,
          "SW_RAMP": "1",
          "COUNTY_NA": "台南市",
          "VILL_NAME": "安南區"
        }
      }
    },
    {
      "type": "Feature",
      "id": "1659",
      "geometry": {
        "type": "Polygon",
        "coordinates": [
          [
            [
              120.197819456498,
              23.0279591549361
            ],
            [
              120.197829088318,
              23.027920502619
            ],
            [
              120.197830776102,
              23.0279205111751
            ],
            [
              120.197855394986,
              23.0278113773449
            ],
            [
              120.197855431112,
              23.0278112077624
            ],
            [
              120.197928591537,
              23.0274790835821
            ],
            [
              120.198011521091,
              23.0271348164329
            ],
            [
              120.197972573116,
              23.0271267700827
            ],
            [
              120.19788955187,
              23.0274710186846
            ],
            [
              120.197816219107,
              23.0278038932747
            ],
            [
              120.197789959052,
              23.0279203042518
            ],
            [
              120.197685323011,
              23.028384173018
            ],
            [
              120.19755611064,
              23.028941214073
            ],
            [
              120.197589237229,
              23.0289778184581
            ],
            [
              120.197598933537,
              23.0289273081823
            ],
            [
              120.197610220289,
              23.0288744617604
            ],
            [
              120.197637299157,
              23.0287681235319
            ],
            [
              120.197716783393,
              23.0284256776828
            ],
            [
              120.197764392808,
              23.0282010446377
            ],
            [
              120.197786180817,
              23.028110986075
            ],
            [
              120.197792137085,
              23.0280791581267
            ],
            [
              120.197819456498,
              23.0279591549361
            ]
          ]
        ]
      },
      "properties": {
        "source": "tainan-sidewalk",
        "sourceKey": "tainan-sidewalk",
        "sourceVersion": "202312",
        "sourceFeatureId": "1659",
        "facilityType": "sidewalk",
        "pedestrianAllowed": true,
        "bicycleAllowed": null,
        "direction": "1",
        "provenance": [
          {
            "dataset": "tainan-sidewalk",
            "record_id": "1659"
          }
        ],
        "officialInventory": true,
        "name": "郡安路五段153巷",
        "originalCrs": "assumed:EPSG:4326",
        "originalProperties": {
          "id": null,
          "Name": "郡安路五段153巷",
          "descriptio": null,
          "timestamp": null,
          "begin": null,
          "end": null,
          "altitudeMo": null,
          "tessellate": -1,
          "extrude": 0,
          "visibility": -1,
          "drawOrder": null,
          "icon": null,
          "PSTART": "安富街",
          "PEND": "郡安路五段",
          "SW_DIRECT": "1",
          "SW_LENG": 208.64,
          "SW_WTH": 5.53,
          "SWW_WTH": 5.53,
          "SW_RAMP": "3",
          "COUNTY_NA": "台南市",
          "VILL_NAME": "安南區"
        }
      }
    },
    {
      "type": "Feature",
      "id": "1660",
      "geometry": {
        "type": "MultiPolygon",
        "coordinates": [
          [
            [
              [
                120.200538883839,
                23.0287580280108
              ],
              [
                120.200534722719,
                23.0287280939113
              ],
              [
                120.199944349208,
                23.028773122962
              ],
              [
                120.199632849216,
                23.0287968824695
              ],
              [
                120.199574753958,
                23.0288028627091
              ],
              [
                120.199139927969,
                23.0288388327129
              ],
              [
                120.199094697475,
                23.0288408342137
              ],
              [
                120.199096704262,
                23.0288657836669
              ],
              [
                120.199103296512,
                23.0288709208393
              ],
              [
                120.199123560649,
                23.0288768279456
              ],
              [
                120.19917360852,
                23.0288752102154
              ],
              [
                120.199386466777,
                23.0288553375599
              ],
              [
                120.199643866631,
                23.0288304958115
              ],
              [
                120.199944139309,
                23.0288086860028
              ],
              [
                120.199951354281,
                23.0288081626174
              ],
              [
                120.200108447374,
                23.0287951859394
              ],
              [
                120.200264855539,
                23.0287832025648
              ],
              [
                120.200538883839,
                23.0287580280108
              ]
            ]
          ],
          [
            [
              [
                120.197593730885,
                23.0289827825084
              ],
              [
                120.198980244484,
                23.0288792106575
              ],
              [
                120.198992335858,
                23.0288710626148
              ],
              [
                120.199000706505,
                23.028855426951
              ],
              [
                120.199002663345,
                23.0288449077749
              ],
              [
                120.198928065418,
                23.0288482098919
              ],
              [
                120.198876071596,
                23.0288520661841
              ],
              [
                120.19775354319,
                23.0289358887137
              ],
              [
                120.197621539578,
                23.0289496223781
              ],
              [
                120.197598932561,
                23.0289273081773
              ],
              [
                120.197589237234,
                23.0289778175551
              ],
              [
                120.197593730885,
                23.0289827825084
              ]
            ]
          ]
        ]
      },
      "properties": {
        "source": "tainan-sidewalk",
        "sourceKey": "tainan-sidewalk",
        "sourceVersion": "202312",
        "sourceFeatureId": "1660",
        "facilityType": "sidewalk",
        "pedestrianAllowed": true,
        "bicycleAllowed": null,
        "direction": "1",
        "provenance": [
          {
            "dataset": "tainan-sidewalk",
            "record_id": "1660"
          }
        ],
        "officialInventory": true,
        "name": "郡安路五段",
        "originalCrs": "assumed:EPSG:4326",
        "originalProperties": {
          "id": null,
          "Name": "郡安路五段",
          "descriptio": null,
          "timestamp": null,
          "begin": null,
          "end": null,
          "altitudeMo": null,
          "tessellate": -1,
          "extrude": 0,
          "visibility": -1,
          "drawOrder": null,
          "icon": null,
          "PSTART": "安寧街",
          "PEND": "北安路二段",
          "SW_DIRECT": "1",
          "SW_LENG": 293.44,
          "SW_WTH": 3.86,
          "SWW_WTH": 2.36,
          "SW_RAMP": "5",
          "COUNTY_NA": "台南市",
          "VILL_NAME": "安南區"
        }
      }
    },
    {
      "type": "Feature",
      "id": "4425",
      "geometry": {
        "type": "Polygon",
        "coordinates": [
          [
            [
              120.190617530492,
              23.0298310784588
            ],
            [
              120.191469914667,
              23.0300719701515
            ],
            [
              120.191949892526,
              23.0301764800056
            ],
            [
              120.193562695322,
              23.0302604616198
            ],
            [
              120.204408102148,
              23.0293822507524
            ],
            [
              120.204408796653,
              23.0293902549087
            ],
            [
              120.204509804415,
              23.0293819584079
            ],
            [
              120.204552737841,
              23.029359436467
            ],
            [
              120.20446099081,
              23.02936907086
            ],
            [
              120.204195729259,
              23.0293665991799
            ],
            [
              120.193559396896,
              23.0302195927382
            ],
            [
              120.191955993327,
              23.0301334196439
            ],
            [
              120.191474626045,
              23.0300296070572
            ],
            [
              120.190604658785,
              23.0297907384884
            ],
            [
              120.190587314733,
              23.0297592251107
            ],
            [
              120.19058301889,
              23.0297515636932
            ],
            [
              120.190569069142,
              23.029749614077
            ],
            [
              120.190567795716,
              23.0297553687495
            ],
            [
              120.190617530492,
              23.0298310784588
            ]
          ]
        ]
      },
      "properties": {
        "source": "tainan-sidewalk",
        "sourceKey": "tainan-sidewalk",
        "sourceVersion": "202312",
        "sourceFeatureId": "4425",
        "facilityType": "sidewalk",
        "pedestrianAllowed": true,
        "bicycleAllowed": null,
        "direction": "1",
        "provenance": [
          {
            "dataset": "tainan-sidewalk",
            "record_id": "4425"
          }
        ],
        "officialInventory": true,
        "name": "安通路五段",
        "originalCrs": "assumed:EPSG:4326",
        "originalProperties": {
          "id": null,
          "Name": "安通路五段",
          "descriptio": null,
          "timestamp": null,
          "begin": null,
          "end": null,
          "altitudeMo": null,
          "tessellate": -1,
          "extrude": 0,
          "visibility": -1,
          "drawOrder": null,
          "icon": null,
          "PSTART": "海佃路一段",
          "PEND": "北安路二段",
          "SW_DIRECT": "1",
          "SW_LENG": 1446.08,
          "SW_WTH": 4.0,
          "SWW_WTH": 4.0,
          "SW_RAMP": "2",
          "COUNTY_NA": "台南市",
          "VILL_NAME": "安南區"
        }
      }
    },
    {
      "type": "Feature",
      "id": "4426",
      "geometry": {
        "type": "Polygon",
        "coordinates": [
          [
            [
              120.204898343885,
              23.0293202129906
            ],
            [
              120.204916294437,
              23.0293420386314
            ],
            [
              120.204948420199,
              23.0293506973757
            ],
            [
              120.206454772182,
              23.0292331380622
            ],
            [
              120.207635871555,
              23.0291593573374
            ],
            [
              120.207821931111,
              23.0291383819226
            ],
            [
              120.209117459493,
              23.0290599525709
            ],
            [
              120.20911809075,
              23.0290621229507
            ],
            [
              120.209578746332,
              23.0290204932997
            ],
            [
              120.209578868761,
              23.0290179022716
            ],
            [
              120.210531981318,
              23.0289252076223
            ],
            [
              120.211055273314,
              23.0289319534017
            ],
            [
              120.211553898852,
              23.0289844113645
            ],
            [
              120.212173120858,
              23.0291145131273
            ],
            [
              120.212743854968,
              23.0293033920387
            ],
            [
              120.213220047429,
              23.0295181216182
            ],
            [
              120.213507129545,
              23.0296644459688
            ],
            [
              120.213517953803,
              23.0296451933993
            ],
            [
              120.213221644389,
              23.0294934412427
            ],
            [
              120.212755953784,
              23.029283080311
            ],
            [
              120.212176294691,
              23.0290804222146
            ],
            [
              120.211666597044,
              23.0289487711844
            ],
            [
              120.21163938485,
              23.0289289319149
            ],
            [
              120.211602989779,
              23.0289161716414
            ],
            [
              120.211562341971,
              23.0289149757959
            ],
            [
              120.211520950388,
              23.0289275922966
            ],
            [
              120.211450950125,
              23.0289172471393
            ],
            [
              120.211048278736,
              23.0288949492739
            ],
            [
              120.210530939956,
              23.0288828873549
            ],
            [
              120.20962811181,
              23.0289772870311
            ],
            [
              120.209556238651,
              23.0289752754985
            ],
            [
              120.209556388794,
              23.0289578932995
            ],
            [
              120.209536975706,
              23.0289491725722
            ],
            [
              120.209430629368,
              23.0289578790699
            ],
            [
              120.209406497305,
              23.0289770648586
            ],
            [
              120.20937122314,
              23.0289795795811
            ],
            [
              120.20937202238,
              23.0289981133462
            ],
            [
              120.209322298898,
              23.0290039963282
            ],
            [
              120.209318380248,
              23.0289850135305
            ],
            [
              120.209279789223,
              23.0289874755378
            ],
            [
              120.209252853315,
              23.0289705088191
            ],
            [
              120.209147591454,
              23.0289789496422
            ],
            [
              120.209134512105,
              23.0290100471549
            ],
            [
              120.207833903873,
              23.0290746532325
            ],
            [
              120.207822537283,
              23.029104774923
            ],
            [
              120.20781163973,
              23.0291063909332
            ],
            [
              120.207813023674,
              23.0291183266248
            ],
            [
              120.206447778618,
              23.0292128394477
            ],
            [
              120.204898343885,
              23.0293202129906
            ]
          ]
        ]
      },
      "properties": {
        "source": "tainan-sidewalk",
        "sourceKey": "tainan-sidewalk",
        "sourceVersion": "202312",
        "sourceFeatureId": "4426",
        "facilityType": "sidewalk",
        "pedestrianAllowed": true,
        "bicycleAllowed": null,
        "direction": "1",
        "provenance": [
          {
            "dataset": "tainan-sidewalk",
            "record_id": "4426"
          }
        ],
        "officialInventory": true,
        "name": "安通路四段",
        "originalCrs": "assumed:EPSG:4326",
        "originalProperties": {
          "id": null,
          "Name": "安通路四段",
          "descriptio": null,
          "timestamp": null,
          "begin": null,
          "end": null,
          "altitudeMo": null,
          "tessellate": -1,
          "extrude": 0,
          "visibility": -1,
          "drawOrder": null,
          "icon": null,
          "PSTART": "北安路二段",
          "PEND": "安和路一段",
          "SW_DIRECT": "1",
          "SW_LENG": 901.03,
          "SW_WTH": 3.0,
          "SWW_WTH": 3.0,
          "SW_RAMP": "2",
          "COUNTY_NA": "台南市",
          "VILL_NAME": "安南區"
        }
      }
    },
    {
      "type": "Feature",
      "id": "4483",
      "geometry": {
        "type": "Polygon",
        "coordinates": [
          [
            [
              120.213913399375,
              23.0290051646471
            ],
            [
              120.213971339821,
              23.0290293452488
            ],
            [
              120.213990907622,
              23.0289936037512
            ],
            [
              120.21193641582,
              23.0282785651009
            ],
            [
              120.208858054826,
              23.0282930692362
            ],
            [
              120.204655224576,
              23.0285766251438
            ],
            [
              120.194021307228,
              23.0294426649899
            ],
            [
              120.193033711374,
              23.0294794424179
            ],
            [
              120.190481934941,
              23.0288452127811
            ],
            [
              120.177288101241,
              23.0250977846253
            ],
            [
              120.176869053844,
              23.0250299019506
            ],
            [
              120.174130877065,
              23.023241650285
            ],
            [
              120.174104811078,
              23.02328332522
            ],
            [
              120.176836534912,
              23.0250715437739
            ],
            [
              120.177275014169,
              23.025127581698
            ],
            [
              120.178498916036,
              23.0254923203105
            ],
            [
              120.190810264165,
              23.0289782987242
            ],
            [
              120.193039879575,
              23.0295272583363
            ],
            [
              120.194033929424,
              23.0294905137527
            ],
            [
              120.196403619698,
              23.0292755907746
            ],
            [
              120.203408873784,
              23.0287196817614
            ],
            [
              120.204984093504,
              23.0286200889758
            ],
            [
              120.208896495695,
              23.0283410451206
            ],
            [
              120.211916743425,
              23.0283322242593
            ],
            [
              120.213913399375,
              23.0290051646471
            ]
          ]
        ]
      },
      "properties": {
        "source": "tainan-sidewalk",
        "sourceKey": "tainan-sidewalk",
        "sourceVersion": "202312",
        "sourceFeatureId": "4483",
        "facilityType": "sidewalk",
        "pedestrianAllowed": true,
        "bicycleAllowed": null,
        "direction": "2",
        "provenance": [
          {
            "dataset": "tainan-sidewalk",
            "record_id": "4483"
          }
        ],
        "officialInventory": true,
        "name": "郡安路河堤",
        "originalCrs": "assumed:EPSG:4326",
        "originalProperties": {
          "id": null,
          "Name": "郡安路河堤",
          "descriptio": null,
          "timestamp": null,
          "begin": null,
          "end": null,
          "altitudeMo": null,
          "tessellate": -1,
          "extrude": 0,
          "visibility": -1,
          "drawOrder": null,
          "icon": null,
          "PSTART": "安順橋",
          "PEND": "濱海橋",
          "SW_DIRECT": "2",
          "SW_LENG": 4240.0,
          "SW_WTH": 4.0,
          "SWW_WTH": 2.0,
          "SW_RAMP": "16",
          "COUNTY_NA": "台南市",
          "VILL_NAME": "安南區"
        }
      }
    }
  ],
  "metadata": {
    "originalCrs": "assumed:EPSG:4326"
  }
}
